,accuracy,formatted_address,google_place_id,input_string,latitude,longitude,number_of_results,postcode,status,type
0,GEOMETRIC_CENTER,"59 St - Lexington Avenue Subway Station, New York, NY, USA",ChIJG3uyYu9YwokRiBoV_TOGMDU,59 ST New York City metro station,40.762824,-73.967562,1,,OK,"establishment,point_of_interest,transit_station"
1,GEOMETRIC_CENTER,"59 St - Lexington Avenue Subway Station, New York, NY, USA",ChIJG3uyYu9YwokRiBoV_TOGMDU,5 AV/59 ST New York City metro station,40.762824,-73.967562,1,,OK,"establishment,point_of_interest,transit_station"
2,GEOMETRIC_CENTER,"57th Street-Seventh Ave., New York, NY 10106, USA",ChIJb-OFh_dYwokRAJW452KSwV0,57 ST-7 AV New York City metro station,40.765564,-73.9803309,1,10106,OK,"establishment,point_of_interest,subway_station,transit_station"
3,GEOMETRIC_CENTER,"49 St, New York, NY 10036, USA",ChIJv6xT4VVYwokRb-AIZdrXKAc,49 ST New York City metro station,40.7598372,-73.9841825,1,10036,OK,"establishment,point_of_interest,subway_station,transit_station"
4,GEOMETRIC_CENTER,"Times Sq-42 St, New York, NY 10036, USA",ChIJ5RqjPKtZwokRgOy4tBivbcw,TIMES SQ-42 ST New York City metro station,40.7545563,-73.9866737,1,10036,OK,"establishment,point_of_interest,subway_station,transit_station"
5,GEOMETRIC_CENTER,"34 Street-Herald Sq, New York, NY 10001, USA",ChIJh3-JOKlZwokRF2zVuxg0pXc,34 ST-HERALD SQ New York City metro station,40.7488979,-73.98878859999999,2,10001,OK,"establishment,point_of_interest,subway_station,transit_station"
6,GEOMETRIC_CENTER,"28 Street Subway Station, New York, NY 10016, USA",ChIJUYdWnqdZwokRAMaUbC9nBv0,28 ST New York City metro station,40.7431333,-73.984225,1,10016,OK,"establishment,point_of_interest,subway_station,transit_station"
7,GEOMETRIC_CENTER,"23 Street Station, E 23rd St, New York, NY 10010, USA",ChIJ3QxIAKRZwokR9GKF9UAFs8k,23 ST New York City metro station,40.7413626,-73.9891335,1,10010,OK,"establishment,point_of_interest,subway_station,transit_station"
8,GEOMETRIC_CENTER,"14 Street - Union Square Station, New York, NY 10003, USA",ChIJGxFxxJhZwokRaAQ22S4T8GA,14 ST-UNION SQ New York City metro station,40.7348024,-73.990753,2,10003,OK,"establishment,point_of_interest,subway_station,transit_station"
9,GEOMETRIC_CENTER,"8 Street Station, New York, NY 10003, USA",ChIJdds5RppZwokR0fZVTlTGzdQ,8 ST-NYU New York City metro station,40.7306255,-73.9926698,1,10003,OK,"establishment,point_of_interest,subway_station,transit_station"
10,ROOFTOP,"Prince St, 88 Prince St, New York, NY 10012, USA",ChIJdS2R445ZwokRH4dsykZ73T4,PRINCE ST New York City metro station,40.7242266,-73.99775509999999,1,10012,OK,"establishment,point_of_interest,subway_station,transit_station"
11,ROOFTOP,"Canal Street Subway Station, Mbamlm 5721, Goodstone Dr #2326, Raleigh, NC 27pi, United States",ChIJD5YNPopZwokRlB77T56V4xE,CANAL ST New York City metro station,40.7195147,-74.0017857,1,27pi,OK,"establishment,point_of_interest,subway_station,transit_station"
12,GEOMETRIC_CENTER,"City Hall Park, New York, NY 10007, USA",ChIJs--MqP1YwokRBwAhjXWIHn8,CITY HALL New York City metro station,40.7127744,-74.006059,1,10007,OK,"city_hall,establishment,local_government_office,point_of_interest"
13,GEOMETRIC_CENTER,"Cortlandt St Station, New York, NY 10006, USA",ChIJEzFB6hlawokRjBSIJ-zCLq8,CORTLANDT ST New York City metro station,40.7110496,-74.0107859,1,10006,OK,"establishment,point_of_interest,subway_station,transit_station"
14,GEOMETRIC_CENTER,"Rector St, New York, NY 10006, USA",ChIJmXsV2BBawokRKRW4simy9As,RECTOR ST New York City metro station,40.7078954,-74.01363649999999,1,10006,OK,"establishment,point_of_interest,subway_station,transit_station"
15,GEOMETRIC_CENTER,"Whitehall St, New York, NY 10004, USA",ChIJK3VvhRNawokRje7SOro9dA0,WHITEHALL S-FRY New York City metro station,40.702161,-74.0127837,2,10004,OK,"establishment,point_of_interest,subway_station,transit_station"
16,GEOMETRIC_CENTER,"Delancey St, New York, NY 10002, USA",ChIJGcMs2IBZwokRmiN29CpyU6w,DELANCEY/ESSEX New York City metro station,40.718613,-73.988113,1,10002,OK,"establishment,point_of_interest,subway_station,transit_station"
17,GEOMETRIC_CENTER,"Bowery Station, Bowery, New York, NY 10002, USA",ChIJ4fAuO4ZZwokR9ytaxyuxLOc,BOWERY New York City metro station,40.7201668,-73.99353470000001,1,10002,OK,"establishment,point_of_interest,subway_station,transit_station"
18,GEOMETRIC_CENTER,"Chambers St, New York, NY 10013, USA",ChIJ_yiG1CNawokRwkWT6QS0jE4,CHAMBERS ST New York City metro station,40.7131115,-74.0040466,1,10013,OK,"establishment,point_of_interest,subway_station,transit_station"
19,GEOMETRIC_CENTER,"Fulton St Subway Station, New York, NY 10038, USA",ChIJZRVRExhawokR_OhyrnV9EtM,FULTON ST New York City metro station,40.709373,-74.0083258,1,10038,OK,"establishment,point_of_interest,subway_station,transit_station"
20,GEOMETRIC_CENTER,"Broad St, New York, NY 10005, USA",ChIJXy7mwhZawokRC_tiZTQds28,BROAD ST New York City metro station,40.7070097,-74.0107831,1,10005,OK,"establishment,point_of_interest,subway_station,transit_station"
21,GEOMETRIC_CENTER,"49 St, New York, NY 10036, USA",ChIJv6xT4VVYwokRb-AIZdrXKAc,7 AV New York City metro station,40.7598372,-73.9841825,1,10036,OK,"establishment,point_of_interest,subway_station,transit_station"
22,GEOMETRIC_CENTER,"Park Pl, New York, NY 10007, USA",ChIJyUNg3RhawokRC6Tc7HbSScw,PARK PLACE New York City metro station,40.7132422,-74.0092559,1,10007,OK,"establishment,point_of_interest,subway_station,transit_station"
23,GEOMETRIC_CENTER,"Botanical Garden, Bronx, NY 10458, USA",ChIJuz7Sf3nzwokRBFsd_S8xoWs,BOTANIC GARDEN New York City metro station,40.866555,-73.88310899999999,1,10458,OK,"establishment,point_of_interest,transit_station"
24,GEOMETRIC_CENTER,"Prospect Park Subway Station, Lincoln Rd, Brooklyn, NY 11226, USA",ChIJ44UjjxJbwokR9mDzIH-enRw,PROSPECT PARK New York City metro station,40.6608788,-73.9621109,1,11226,OK,"establishment,point_of_interest,subway_station,transit_station"
25,GEOMETRIC_CENTER,"Parkside Av, Brooklyn, NY 11226, USA",ChIJU2iDGxVbwokRD2jRDgYza34,PARKSIDE AV New York City metro station,40.655292,-73.961495,1,11226,OK,"establishment,point_of_interest,subway_station,transit_station"
26,GEOMETRIC_CENTER,"Church Av, Brooklyn, NY 11218, USA",ChIJicOz8ChbwokRCx-TAmJFgW4,CHURCH AV New York City metro station,40.6436845,-73.9796075,1,11218,OK,"establishment,point_of_interest,subway_station,transit_station"
27,GEOMETRIC_CENTER,"Beverley Rd, Brooklyn, NY 11226, USA",ChIJDxSF5DlbwokRUyR8BGPWHSA,BEVERLEY ROAD New York City metro station,40.6442291,-73.96449799999999,1,11226,OK,"establishment,point_of_interest,subway_station,transit_station"
28,GEOMETRIC_CENTER,"Cortelyou Rd, Brooklyn, NY 11226, USA",ChIJjQGd4DZbwokR-Jd1HOXozOc,CORTELYOU RD New York City metro station,40.6412697,-73.9639694,1,11226,OK,"establishment,point_of_interest,subway_station,transit_station"
29,GEOMETRIC_CENTER,"Newkirk Plaza Subway Station, Brooklyn, NY 11226, USA",ChIJV-lU4TRbwokRYzjH8LjGM2s,NEWKIRK PLAZA New York City metro station,40.6349954,-73.9627801,2,11226,OK,"establishment,point_of_interest,subway_station,transit_station"
30,GEOMETRIC_CENTER,"Avenue H, Brooklyn, NY 11230, USA",ChIJjzZsOspEwokRjXiYxXLHE0w,AVENUE H New York City metro station,40.6297445,-73.9616617,1,11230,OK,"establishment,point_of_interest,subway_station,transit_station"
31,GEOMETRIC_CENTER,"Avenue J, Brooklyn, NY 11230, USA",ChIJy4D7OMhEwokRtl2bnNFRZVM,AVENUE J New York City metro station,40.6252684,-73.9607296,1,11230,OK,"establishment,point_of_interest,subway_station,transit_station"
32,GEOMETRIC_CENTER,"Avenue M, Brooklyn, NY 11230, USA",ChIJY7qMV79EwokRYUKwwtNlD-0,AVENUE M New York City metro station,40.6180725,-73.9593745,1,11230,OK,"establishment,point_of_interest,subway_station,transit_station"
33,GEOMETRIC_CENTER,"Kings Highway Station, Kings Hwy, Brooklyn, NY 11229, USA",ChIJyYTRmZREwokR2i-dM8F1BZM,KINGS HWY New York City metro station,40.6088717,-73.9577807,1,11229,OK,"establishment,point_of_interest,subway_station,transit_station"
34,GEOMETRIC_CENTER,"Avenue U, Brooklyn, NY 11223, USA",ChIJN3rWbP9EwokRcazgFVdN7yE,AVENUE U New York City metro station,40.5965048,-73.97894649999999,1,11223,OK,"establishment,point_of_interest,subway_station,transit_station"
35,GEOMETRIC_CENTER,"Neck Rd, Brooklyn, NY 11229, USA",ChIJB5WVSopEwokR9da-jQrrCHo,NECK RD New York City metro station,40.595246,-73.95516099999999,1,11229,OK,"establishment,point_of_interest,subway_station,transit_station"
36,GEOMETRIC_CENTER,"Sheepshead Bay, Brooklyn, NY 11235, USA",ChIJ1_lgpGZEwokR-UxILB2zo5E,SHEEPSHEAD BAY New York City metro station,40.5867923,-73.95424229999999,1,11235,OK,"establishment,point_of_interest,subway_station,transit_station"
37,GEOMETRIC_CENTER,"Brighton Beach, Brooklyn, NY 11235, USA",ChIJV9j5vUFEwokRK954zkxvsTk,BRIGHTON BEACH New York City metro station,40.5777081,-73.9610469,1,11235,OK,"establishment,point_of_interest,subway_station,transit_station"
38,GEOMETRIC_CENTER,"Ocean Park Way, Brooklyn, NY 11235, USA",ChIJqx6roUdEwokRJOdtao7G2uY,OCEAN PKWY New York City metro station,40.5762715,-73.96850909999999,1,11235,OK,"establishment,point_of_interest,subway_station,transit_station"
39,GEOMETRIC_CENTER,"City Hall Park, New York, NY 10007, USA",ChIJs--MqP1YwokRBwAhjXWIHn8,BOROUGH HALL New York City metro station,40.7127744,-74.006059,2,10007,OK,"city_hall,establishment,local_government_office,point_of_interest"
40,GEOMETRIC_CENTER,"Jay Street Metro Tech, Brooklyn, NY 11201, USA",ChIJrbZ7k0tawokR35WqpKoPjxY,JAY ST-METROTEC New York City metro station,40.6923458,-73.987257,1,11201,OK,"establishment,point_of_interest,transit_station"
41,GEOMETRIC_CENTER,"DeKalb Avenue Subway Station, Brooklyn, NY 11217, USA",ChIJuzFDX7NbwokR1ZH9SoL2Q-c,DEKALB AV New York City metro station,40.6898084,-73.98115589999999,1,11217,OK,"establishment,point_of_interest,subway_station,transit_station"
42,ROOFTOP,"Dome/GWCC/Philips Arena/CNN Center Transit Station, 100 Centennial Olympic Park Dr NW, Atlanta, GA 30303, USA",ChIJ77wFoX8D9YgRtW_Y5jb5QFU,ATL AV-BARCLAY New York City metro station,33.75675349999999,-84.39746339999999,1,30303,OK,"establishment,point_of_interest,subway_station,transit_station"
43,GEOMETRIC_CENTER,"Union St, Brooklyn, NY 11215, USA",ChIJqdtrNVVawokREzFXG_uqvZA,UNION ST New York City metro station,40.6771729,-73.9832467,1,11215,OK,"establishment,point_of_interest,subway_station,transit_station"
44,GEOMETRIC_CENTER,"4 Av - 9 St Station, Brooklyn, NY 11215, USA",ChIJP5pZkPtawokRgdTLZJPaJdc,4AV-9 ST New York City metro station,40.6698964,-73.9891106,1,11215,OK,"establishment,point_of_interest,subway_station,transit_station"
45,GEOMETRIC_CENTER,"Prospect Av Station, Brooklyn, NY 11215, USA",ChIJGSm9DuVawokRA79zZY0WmTM,PROSPECT AV New York City metro station,40.66541369999999,-73.99292590000002,1,11215,OK,"establishment,point_of_interest,subway_station,transit_station"
46,GEOMETRIC_CENTER,"25 St, Brooklyn, NY 11232, USA",ChIJYeuErulawokRjRn_Ju18kUs,25 ST New York City metro station,40.6603831,-73.998132,1,11232,OK,"establishment,point_of_interest,subway_station,transit_station"
47,GEOMETRIC_CENTER,"36 Street Station, Brooklyn, NY 10012, USA",ChIJa6yoIMFawokRHgcC0uwDQOQ,36 ST New York City metro station,40.6545065,-74.0042335,1,10012,OK,"establishment,point_of_interest,subway_station,transit_station"
48,GEOMETRIC_CENTER,"45 St, Brooklyn, NY 11220, USA",ChIJ87rXcrdawokR4-BwyzUUEAk,45 ST New York City metro station,40.648939,-74.01000599999999,1,11220,OK,"establishment,point_of_interest,subway_station,transit_station"
49,GEOMETRIC_CENTER,"5 Avenue-53 Street Station, New York, NY 10022, USA",ChIJq_cdlvtYwokRg0qolCeD-9A,53 ST New York City metro station,40.7602163,-73.975543,1,10022,OK,"establishment,point_of_interest,subway_station,transit_station"
50,GEOMETRIC_CENTER,"Bay Ridge Av, Brooklyn, NY 11220, USA",ChIJmfEbJlFFwokRVTywJJGnlyM,BAY RIDGE AV New York City metro station,40.6348148,-74.0234354,1,11220,OK,"establishment,point_of_interest,subway_station,transit_station"
51,GEOMETRIC_CENTER,"77 St, E 77th St, New York, NY 10075, USA",ChIJ7fmIe5VYwokReqddWhnfbaw,77 ST New York City metro station,40.7736346,-73.95982939999999,2,10075,OK,"establishment,point_of_interest,subway_station,transit_station"
52,GEOMETRIC_CENTER,"86 Street Subway Station, New York, NY 10028, USA",ChIJP0weCrtYwokRj3S4SxhyJkk,86 ST New York City metro station,40.7769631,-73.9523007,1,10028,OK,"establishment,point_of_interest,subway_station,transit_station"
53,GEOMETRIC_CENTER,"Bay Ridge - 95 St, Brooklyn, NY 11209, USA",ChIJO2VlxYlPwokRdNG5W3ntX0M,BAY RIDGE-95 ST New York City metro station,40.6167174,-74.0308527,2,11209,OK,"establishment,point_of_interest,subway_station,transit_station"
54,GEOMETRIC_CENTER,"14 Street / 8 Av, New York, NY 10014, USA",ChIJsYiFjr5ZwokRF-WL1JXZYn8,8 AV New York City metro station,40.7397407,-74.00280390000002,1,10014,OK,"establishment,point_of_interest,subway_station,transit_station"
55,GEOMETRIC_CENTER,"Fort Hamilton Parkway Station, Brooklyn, NY 11219, USA",ChIJX7zHe9JawokRWnPt1tQxdr4,FT HAMILTON PKY New York City metro station,40.640915,-73.994301,1,11219,OK,"establishment,point_of_interest,subway_station,transit_station"
56,GEOMETRIC_CENTER,"New Utrecht Av, Brooklyn, NY 11219, USA",ChIJ01UIFTtFwokRlwiWBg1lUso,NEW UTRECHT AV New York City metro station,40.6255554,-73.99678589999999,1,11219,OK,"establishment,point_of_interest,subway_station,transit_station"
57,GEOMETRIC_CENTER,"18 Av, Brooklyn, NY 11230, USA",ChIJLeuMTNFEwokRNENHwiRDW7k,18 AV New York City metro station,40.6296673,-73.9770029,1,11230,OK,"establishment,point_of_interest,subway_station,transit_station"
58,GEOMETRIC_CENTER,"20 Avenue Station, Brooklyn, NY 11214, USA",ChIJd1Jy2g5FwokRWubQkqdTAco,20 AV New York City metro station,40.60463559999999,-73.9984303,1,11214,OK,"establishment,point_of_interest,subway_station,transit_station"
59,GEOMETRIC_CENTER,"Bay Parkway N Train Station, Brooklyn, NY 11204, USA",ChIJsx7n8-FEwokR3F1Af2s_NaY,BAY PKWY New York City metro station,40.61188000000001,-73.98187109999999,1,11204,OK,"establishment,point_of_interest,transit_station"
60,GEOMETRIC_CENTER,"9 Avenue, Brooklyn, NY 11219, USA",ChIJQ8Q9JNBawokRx37hQIgznbA,9 AV New York City metro station,40.6463419,-73.9943669,1,11219,OK,"establishment,point_of_interest,subway_station,transit_station"
61,GEOMETRIC_CENTER,"50 St 8 Av, New York, NY 10019, USA",ChIJP9p8-FZYwokR6xDCM4A-Bf8,50 ST New York City metro station,40.7620363,-73.98632909999999,1,10019,OK,"establishment,point_of_interest,subway_station,transit_station"
62,GEOMETRIC_CENTER,"55 Street Station, Brooklyn, NY 11219, USA",ChIJN5Cz2jFFwokRqG9CJ44t_Fo,55 ST New York City metro station,40.6315514,-73.9956328,1,11219,OK,"establishment,point_of_interest,subway_station,transit_station"
63,GEOMETRIC_CENTER,"71 St, Brooklyn, NY 11228, USA",ChIJhSs6kj1FwokRCQpfhJ_0kJU,71 ST New York City metro station,40.6196212,-73.99877699999999,1,11228,OK,"establishment,point_of_interest,subway_station,transit_station"
64,GEOMETRIC_CENTER,"79 St, New York, NY 10024, USA",ChIJOfwkh4hYwokRcG5CDHVfr64,79 ST New York City metro station,40.783934,-73.979917,1,10024,OK,"establishment,point_of_interest,transit_station"
65,GEOMETRIC_CENTER,"25 Avenue Station, Brooklyn, NY 11214, USA",ChIJT-JwmwBFwokRFL5LVnJ-enE,25 AV New York City metro station,40.5976015,-73.9867624,1,11214,OK,"establishment,point_of_interest,subway_station,transit_station"
66,GEOMETRIC_CENTER,"Bay 50 St Station, Brooklyn, NY 11214, USA",ChIJnaOuOq1FwokRd4rYvHrK6vk,BAY 50 ST New York City metro station,40.5881141,-73.9836783,1,11214,OK,"establishment,point_of_interest,subway_station,transit_station"
67,GEOMETRIC_CENTER,"Coney Island Ave, Brooklyn, NY, USA",ChIJKwR59OlEwokRRjavzpTGZEc,CONEY IS-STILLW New York City metro station,40.6136033,-73.9631313,1,,OK,route
68,GEOMETRIC_CENTER,"West 8 Street-New York Aquarium, Brooklyn, NY 11224, USA",ChIJyxOf4UlEwokR9bECoy3tjLM,W 8 ST-AQUARIUM New York City metro station,40.57612779999999,-73.97596539999999,2,11224,OK,"establishment,point_of_interest,subway_station,transit_station"
69,GEOMETRIC_CENTER,"14 Street Station, New York, NY 10011, USA",ChIJMYs3Y71ZwokREN6AKkj9eCo,6 AV New York City metro station,40.7373653,-73.99684529999999,1,10011,OK,"establishment,point_of_interest,subway_station,transit_station"
70,GEOMETRIC_CENTER,"3 Av, New York, NY 10003, USA",ChIJr8T_-J5ZwokRFc6gOato2mg,3 AV New York City metro station,40.73314440000001,-73.986761,1,10003,OK,"establishment,point_of_interest,subway_station,transit_station"
71,GEOMETRIC_CENTER,"86 Street Subway Station, New York, NY 10028, USA",ChIJP0weCrtYwokRj3S4SxhyJkk,1 AV New York City metro station,40.7769631,-73.9523007,1,10028,OK,"establishment,point_of_interest,subway_station,transit_station"
72,GEOMETRIC_CENTER,"Bedford Avenue Station, Brooklyn, NY 11211, USA",ChIJ5aQoxF1ZwokRjrFlYJmAB-c,BEDFORD AV New York City metro station,40.7177978,-73.95751709999999,1,11211,OK,"establishment,point_of_interest,transit_station"
73,GEOMETRIC_CENTER,"Metropolitan Av/Lorimer St, Brooklyn, NY 11211, USA",ChIJjcsyuFlZwokRqyUoI_V-Oh4,LORIMER ST New York City metro station,40.7139225,-73.9493905,1,11211,OK,"establishment,point_of_interest,transit_station"
74,GEOMETRIC_CENTER,"Graham Av, Brooklyn, NY 11211, USA",ChIJL9YmzlZZwokRZ7AUev85c-0,GRAHAM AV New York City metro station,40.7145263,-73.94438180000002,1,11211,OK,"establishment,point_of_interest,subway_station,transit_station"
75,GEOMETRIC_CENTER,"Grand St, New York, NY 10002, USA",ChIJTYrB6YdZwokRdbSAtaHdlG0,GRAND ST New York City metro station,40.7182002,-73.99357359999999,1,10002,OK,"establishment,point_of_interest,subway_station,transit_station"
76,GEOMETRIC_CENTER,"Montrose Avenue Station, Brooklyn, NY 11206, USA",ChIJpQhVRP5bwokRqBLhAgq7YZE,MONTROSE AV New York City metro station,40.7076407,-73.93983639999999,1,11206,OK,"establishment,point_of_interest,subway_station,transit_station"
77,GEOMETRIC_CENTER,"Morgan Avenue Subway Station, Brooklyn, NY 11237, USA",ChIJWVIeVQBcwokRq8J-2e8Xnck,MORGAN AV New York City metro station,40.70607589999999,-73.93370999999999,1,11237,OK,"establishment,point_of_interest,subway_station,transit_station"
78,GEOMETRIC_CENTER,"Jefferson St, Brooklyn, NY 11237, USA",ChIJdW-xXR1cwokR149mhnOuHaU,JEFFERSON ST New York City metro station,40.7065868,-73.922872,1,11237,OK,"establishment,point_of_interest,subway_station,transit_station"
79,GEOMETRIC_CENTER,"Myrtle - Wyckoff Avenues Subway Station, Brooklyn, NY 11237, USA",ChIJ0fOUCiJcwokRwIEa13VkxLU,MYRTLE-WYCKOFF New York City metro station,40.699686,-73.9117713,1,11237,OK,"establishment,point_of_interest,subway_station,transit_station"
80,GEOMETRIC_CENTER,"Halsey St Station, Brooklyn, NY 11237, USA",ChIJFx_C3SRcwokRvqNNAkz47z0,HALSEY ST New York City metro station,40.6959098,-73.90512009999999,1,11237,OK,"establishment,point_of_interest,subway_station,transit_station"
81,GEOMETRIC_CENTER,"Wilson Avenue, Brooklyn, NY 11207, USA",ChIJQd_RcDlcwokRvBjTuQcrV7g,WILSON AV New York City metro station,40.6887823,-73.9046724,2,11207,OK,"establishment,point_of_interest,subway_station,transit_station"
82,GEOMETRIC_CENTER,"Bushwick Av-Aberdeen St, Brooklyn, NY 11207, USA",ChIJt27FIkdcwokRZ_07oKjD85A,BUSHWICK AV New York City metro station,40.6823373,-73.9051413,1,11207,OK,"establishment,point_of_interest,subway_station,transit_station"
83,GEOMETRIC_CENTER,"Atlantic Av-Barclays Center, Atlantic Ave & Flatbush Ave, Brooklyn, NY, United States",ChIJsQdV5K1bwokRjtqc2QlHIWw,ATLANTIC AV New York City metro station,40.6834617,-73.9765824,1,,OK,"establishment,point_of_interest,subway_station,transit_station"
84,GEOMETRIC_CENTER,"Sutter Av - Rutland Rd, Rutland Road & E 98th St, Brooklyn, NY, United States",ChIJRcLy9IhcwokRwZz9lXo1zWk,SUTTER AV New York City metro station,40.6649921,-73.92290849999999,1,,OK,"establishment,point_of_interest,subway_station,transit_station"
85,GEOMETRIC_CENTER,"Livonia Av, Brooklyn, NY 11212, USA",ChIJsyCYAfhcwokRfx76qDywIrM,LIVONIA AV New York City metro station,40.6640405,-73.90057449999999,1,11212,OK,"establishment,point_of_interest,subway_station,transit_station"
86,GEOMETRIC_CENTER,"New Lots Av, Brooklyn, NY 11212, USA",ChIJK991IvpcwokRKlyWkIXioDg,NEW LOTS New York City metro station,40.6588826,-73.899213,1,11212,OK,"establishment,point_of_interest,subway_station,transit_station"
87,GEOMETRIC_CENTER,"E 105 St, Brooklyn, NY 11236, USA",ChIJtXPElOVcwokReh6QZiQAUQQ,EAST 105 ST New York City metro station,40.6513735,-73.89900279999999,1,11236,OK,"establishment,point_of_interest,subway_station,transit_station"
88,GEOMETRIC_CENTER,"Canarsie-Rockaway Pkwy, Brooklyn, NY 11236, USA",ChIJTxF7ZuhcwokRtrnMFPkpGKc,CANARSIE-ROCKAW New York City metro station,40.6470969,-73.9016086,1,11236,OK,"establishment,point_of_interest,subway_station,transit_station"
89,GEOMETRIC_CENTER,"Howard Beach - JFK Airport, Queens, NY, USA",ChIJp88jdXpnwokRvO1C8svkl-g,HOWARD BCH JFK New York City metro station,40.660476,-73.83030099999999,1,,OK,"establishment,point_of_interest,transit_station"
90,GEOMETRIC_CENTER,"Sutphin Blvd - Archer Av - JFK Station, Queens, NY 11435, USA",ChIJI7COX8VgwokR2_ep5tTapLY,JFK JAMAICA CT1 New York City metro station,40.7005728,-73.8077071,1,11435,OK,"establishment,point_of_interest,subway_station,transit_station"
91,GEOMETRIC_CENTER,"Marcy Av, Brooklyn, NY 11211, USA",ChIJ1_BA6uBbwokRTpejGXN1KFE,MARCY AV New York City metro station,40.7084911,-73.95785529999999,1,11211,OK,"establishment,point_of_interest,subway_station,transit_station"
92,GEOMETRIC_CENTER,"Hewes St, Brooklyn, NY 11211, USA",ChIJrc5U_ONbwokRqlNbrF0mTzA,HEWES ST New York City metro station,40.7068229,-73.95342699999999,1,11211,OK,"establishment,point_of_interest,subway_station,transit_station"
93,GEOMETRIC_CENTER,"Flushing Av, Flushing Ave, Brooklyn, NY 11206, USA",ChIJI2lK5flbwokRyvOpXp43xyw,FLUSHING AV New York City metro station,40.7002958,-73.94116439999999,1,11206,OK,"establishment,point_of_interest,subway_station,transit_station"
94,GEOMETRIC_CENTER,"Myrtle - Wyckoff Avenues Subway Station, Brooklyn, NY 11237, USA",ChIJ0fOUCiJcwokRwIEa13VkxLU,MYRTLE AV New York City metro station,40.699686,-73.9117713,1,11237,OK,"establishment,point_of_interest,subway_station,transit_station"
95,GEOMETRIC_CENTER,"Kosciuszko Street Station, Brooklyn, NY 11221, USA",ChIJ7bgqog5cwokRb7zzG_-jl24,KOSCIUSZKO ST New York City metro station,40.6932868,-73.9288263,1,11221,OK,"establishment,point_of_interest,subway_station,transit_station"
96,GEOMETRIC_CENTER,"Gates Avenue Station, Brooklyn, NY 11221, USA",ChIJXcOdWBJcwokROBov1v3GOpQ,GATES AV New York City metro station,40.6896184,-73.9222369,1,11221,OK,"establishment,point_of_interest,subway_station,transit_station"
97,GEOMETRIC_CENTER,"Chauncey St, Brooklyn, NY 11207, USA",ChIJ27Yds0FcwokR83MOUUO2Zh4,CHAUNCEY ST New York City metro station,40.682893,-73.910456,1,11207,OK,"establishment,point_of_interest,subway_station,transit_station"
98,GEOMETRIC_CENTER,"Alabama Av, Brooklyn, NY 11207, USA",ChIJ7bIpEE9cwokR7DAG-rhzNG4,ALABAMA AV New York City metro station,40.6768953,-73.89941189999999,1,11207,OK,"establishment,point_of_interest,subway_station,transit_station"
99,GEOMETRIC_CENTER,"Van Siclen Av, Brooklyn, NY 11207, USA",ChIJK2v8fktcwokRFE55slzVeTE,VAN SICLEN AV New York City metro station,40.6780358,-73.89172470000001,1,11207,OK,"establishment,point_of_interest,subway_station,transit_station"
100,GEOMETRIC_CENTER,"Cleveland St, Brooklyn, NY 11208, USA",ChIJKYwhuLVdwokRwMY9gAXUiX8,CLEVELAND ST New York City metro station,40.679947,-73.88463899999999,1,11208,OK,"establishment,point_of_interest,subway_station,transit_station"
101,GEOMETRIC_CENTER,"Norwood Avenue Station, Brooklyn, NY 11208, USA",ChIJdYldK8hdwokRqgrr1hy3rWM,NORWOOD AV New York City metro station,40.681692,-73.8791221,1,11208,OK,"establishment,point_of_interest,subway_station,transit_station"
102,GEOMETRIC_CENTER,"Crescent St, Brooklyn, NY 11208, USA",ChIJrcBJ-sZdwokRumhxkMLO2tI,CRESCENT ST New York City metro station,40.68345180000001,-73.8729237,1,11208,OK,"establishment,point_of_interest,subway_station,transit_station"
103,GEOMETRIC_CENTER,"Cypress Hills, Brooklyn, NY 11208, USA",ChIJT1_NtMRdwokRmI0vB9PWJp4,CYPRESS HILLS New York City metro station,40.68994860000001,-73.87257310000001,1,11208,OK,"establishment,point_of_interest,subway_station,transit_station"
104,GEOMETRIC_CENTER,"75 St-Elderts Lane Station, Woodhaven, NY 11421, USA",ChIJawd3DN1dwokR_f2A9p82lJA,75 ST-ELDERTS New York City metro station,40.69143649999999,-73.8665512,1,11421,OK,"establishment,point_of_interest,subway_station,transit_station"
105,GEOMETRIC_CENTER,"85 Street - Forest Parkway Station, Queens, NY 11421, USA",ChIJW7GSpeZdwokRsNKd24sHDMc,85 ST-FOREST PK New York City metro station,40.6924861,-73.8590708,1,11421,OK,"establishment,point_of_interest,subway_station,transit_station"
106,GEOMETRIC_CENTER,"Woodhaven Blvd, Queens, NY 11373, USA",ChIJ1VNCbklewokREMTj4uX-pXg,WOODHAVEN BLVD New York City metro station,40.7333477,-73.8704271,1,11373,OK,"establishment,point_of_interest,subway_station,transit_station"
107,GEOMETRIC_CENTER,"104 Street Station, Queens, NY 11418, USA",ChIJTS3W0f9dwokRbWRMCUjcydo,104 ST New York City metro station,40.6951456,-73.8443046,2,11418,OK,"establishment,point_of_interest,subway_station,transit_station"
108,GEOMETRIC_CENTER,"111 Street Station, Queens, NY 11418, USA",ChIJ9YVNgatgwokRcjDzABmd8cA,111 ST New York City metro station,40.69738419999999,-73.8363267,1,11418,OK,"establishment,point_of_interest,subway_station,transit_station"
109,GEOMETRIC_CENTER,"121 St, Queens, NY 11418, USA",ChIJHVgysbFgwokRWvGNCM1yM78,121 ST New York City metro station,40.7006094,-73.8281286,1,11418,OK,"establishment,point_of_interest,subway_station,transit_station"
110,GEOMETRIC_CENTER,"Central Ave, Brooklyn, NY 11221, USA",ChIJY3ftgAVcwokRrm2rxCMzv14,CENTRAL AV New York City metro station,40.6978289,-73.9273632,1,11221,OK,"establishment,point_of_interest,subway_station,transit_station"
111,GEOMETRIC_CENTER,"Knickerbocker Av, Brooklyn, NY 11237, USA",ChIJ64O2NxpcwokRNlFgjsx8y44,KNICKERBOCKER New York City metro station,40.69861460000001,-73.9196759,1,11237,OK,"establishment,point_of_interest,subway_station,transit_station"
112,GEOMETRIC_CENTER,"Seneca Avenue Station, Queens, NY 11385, USA",ChIJ3YgS3CBcwokRb0kW0KoCXWg,SENECA AVE New York City metro station,40.702798,-73.9077315,1,11385,OK,"establishment,point_of_interest,subway_station,transit_station"
113,GEOMETRIC_CENTER,"Forest Av, Queens, NY 11385, USA",ChIJ61KLfJ1ewokR1br81GrzHgY,FOREST AVE New York City metro station,40.7044262,-73.90308499999999,1,11385,OK,"establishment,point_of_interest,subway_station,transit_station"
114,ROOFTOP,"Fresh Pond Road Station, 66-99 Fresh Pond Rd, Queens, NY 11385, USA",ChIJhyJSxoNewokRD80Afe45XGg,FRESH POND RD New York City metro station,40.706231,-73.895939,1,11385,OK,"establishment,point_of_interest,subway_station,transit_station"
115,GEOMETRIC_CENTER,"Middle Village - Metropolitan Av, Queens, NY 11379, USA",ChIJe8Y18IdewokRRaCWGkdSV8U,METROPOLITAN AV New York City metro station,40.7121327,-73.889276,1,11379,OK,"establishment,point_of_interest,subway_station,transit_station"
116,GEOMETRIC_CENTER,"207 St Station, New York, NY 10034, USA",ChIJaUgi6_bzwokROqByq4rwNIA,INWOOD-207 ST New York City metro station,40.8676635,-73.9212009,2,10034,OK,"establishment,point_of_interest,subway_station,transit_station"
117,GEOMETRIC_CENTER,"Dyckman Street Subway Station, New York, NY 10034, USA",ChIJyc-8fwf0wokRvdcwwnA030U,DYCKMAN ST New York City metro station,40.8654861,-73.9272995,2,10034,OK,"establishment,point_of_interest,subway_station,transit_station"
118,GEOMETRIC_CENTER,"190 Street Subway Station, Bennett Ave, New York, NY 10040, USA",ChIJldQt9AL0wokR9Luqx1l1Vbo,190 ST New York City metro station,40.8588877,-73.9342216,1,10040,OK,"establishment,point_of_interest,subway_station,transit_station"
119,GEOMETRIC_CENTER,"181 Street Station, New York, NY 10040, USA",ChIJJTYzUh70wokRnqsTn6SdqWg,181 ST New York City metro station,40.84913,-73.93372889999999,2,10040,OK,"establishment,point_of_interest,subway_station,transit_station"
120,ROOFTOP,"175 Street Station, 807 W 177th St, New York, NY 10033, USA",ChIJZXom2qH2wokRt8ER4N6dmWU,175 ST New York City metro station,40.8479166,-73.9394823,1,10033,OK,"establishment,point_of_interest,subway_station,transit_station"
121,GEOMETRIC_CENTER,"168 Street Station, New York, NY 10032, USA",ChIJt8_OWpz2wokRFYM01bm-B3k,168 ST New York City metro station,40.8408568,-73.9397731,1,10032,OK,"establishment,point_of_interest,transit_station"
122,GEOMETRIC_CENTER,"155 St, New York, NY 10032, USA",ChIJO7HW1YD2wokRP263mdzshJs,155 ST New York City metro station,40.8310964,-73.9415624,1,10032,OK,"establishment,point_of_interest,subway_station,transit_station"
123,GEOMETRIC_CENTER,"145 Street Station, New York, NY 10031, USA",ChIJ-VCiZ3z2wokR0Q1IB6od1ZI,145 ST New York City metro station,40.824077,-73.944763,1,10031,OK,"establishment,point_of_interest,subway_station,transit_station"
124,GEOMETRIC_CENTER,"135 St, New York, NY 10030, USA",ChIJXfIVIHD2wokRYDs2KdhGygw,135 ST New York City metro station,40.817894,-73.947647,1,10030,OK,"establishment,point_of_interest,subway_station,transit_station"
125,GEOMETRIC_CENTER,"125 Street Subway Station, East 125th St &, Lexington Ave, New York, 10035, United States",ChIJj2aaPwr2wokR3HRM4ACiMAs,125 ST New York City metro station,40.8043863,-73.9374292,1,10035,OK,"establishment,point_of_interest,subway_station,transit_station"
126,GEOMETRIC_CENTER,"116 Street Station, New York, NY 10035, USA",ChIJLddxqgj2wokRYq4WAcc35mE,116 ST New York City metro station,40.7986377,-73.9416325,1,10035,OK,"establishment,point_of_interest,subway_station,transit_station"
127,GEOMETRIC_CENTER,"Cathedral Parkway 110 Street Station, New York, NY 10025, USA",ChIJQei0Ejv2wokRkeGsy4Qzclw,CATHEDRAL PKWY New York City metro station,40.8041784,-73.96672579999999,2,10025,OK,"establishment,point_of_interest,subway_station,transit_station"
128,GEOMETRIC_CENTER,"103 St, New York, NY 10029, USA",ChIJ1-xItAL2wokRQQlHUl1GGgY,103 ST New York City metro station,40.7902308,-73.9477564,1,10029,OK,"establishment,point_of_interest,subway_station,transit_station"
129,GEOMETRIC_CENTER,"96 Street Station, New York, NY 10029, USA",ChIJ0UjnhaZYwokR4OcdIT_rvOA,96 ST New York City metro station,40.7858701,-73.95093469999999,1,10029,OK,"establishment,point_of_interest,subway_station,transit_station"
130,GEOMETRIC_CENTER,"81 St - Museum of Natural History, New York, NY 10024, USA",ChIJgRMP6I9YwokRpZyGjmSI43w,81 ST-MUSEUM New York City metro station,40.7819786,-73.9720136,1,10024,OK,"establishment,point_of_interest,transit_station"
131,GEOMETRIC_CENTER,"59 St - Columbus Circle, New York, NY, USA",ChIJAXsiPvZYwokRdCQ2I8qgA-Y,59 ST COLUMBUS New York City metro station,40.7684839,-73.981807,1,,OK,"establishment,point_of_interest,transit_station"
132,GEOMETRIC_CENTER,"42 St - Port Authority Bus Terminal, New York, NY 10036, USA",ChIJ0SEkaFNYwokReNXzJdBV0Uc,42 ST-PORT AUTH New York City metro station,40.7571387,-73.9898439,1,10036,OK,"establishment,point_of_interest,subway_station,transit_station"
133,GEOMETRIC_CENTER,"34 Street Penn Station, New York, NY 10001, USA",ChIJC8QtoK5ZwokRHVB6HwhVPA0,34 ST-PENN STA New York City metro station,40.751056,-73.9903102,1,10001,OK,"establishment,point_of_interest,transit_station"
134,GEOMETRIC_CENTER,"14 St, New York, NY 10011, USA",ChIJ_cbeQb1ZwokRC0Sp4Ckzqos,14 ST New York City metro station,40.7382109,-73.99992340000001,1,10011,OK,"establishment,point_of_interest,subway_station,transit_station"
135,GEOMETRIC_CENTER,"W 4 St, New York, NY 10012, USA",ChIJU8d50JNZwokRcu4hQflx0i4,W 4 ST-WASH SQ New York City metro station,40.7311072,-74.00123119999999,1,10012,OK,"establishment,point_of_interest,transit_station"
136,GEOMETRIC_CENTER,"Spring St Station, New York, NY 10012, USA",ChIJG6hM0ohZwokRvzx4baBsAtQ,SPRING ST New York City metro station,40.7223253,-73.99712439999999,1,10012,OK,"establishment,point_of_interest,subway_station,transit_station"
137,GEOMETRIC_CENTER,"World Trade Center, New York, NY 10007, USA",ChIJFSysHBlawokRuTFRpOXXM38,WORLD TRADE CTR New York City metro station,40.7126452,-74.00989799999999,2,10007,OK,"establishment,point_of_interest,subway_station,transit_station"
138,GEOMETRIC_CENTER,"High Street - Brooklyn Bridge Station, Brooklyn, NY 11201, USA",ChIJ54N_9TZawokRpoON7qlL4eY,HIGH ST New York City metro station,40.6993673,-73.99126559999999,1,11201,OK,"establishment,point_of_interest,subway_station,transit_station"
139,GEOMETRIC_CENTER,"Hoyt - Schermerhorn, Brooklyn, NY 11201, USA",ChIJFSMZ_UxawokROn3xiP3GCKw,HOYT-SCHER New York City metro station,40.6888288,-73.98531249999999,1,11201,OK,"establishment,point_of_interest,transit_station"
140,GEOMETRIC_CENTER,"Lafayette Av (C), Brooklyn, NY 11217, USA",ChIJP7WRS7BbwokRpPeQ3n4vQ5M,LAFAYETTE AV New York City metro station,40.6860052,-73.9733163,1,11217,OK,"establishment,point_of_interest,subway_station,transit_station"
141,GEOMETRIC_CENTER,"Clinton - Washington Ave, Fulton St, Brooklyn, NY 11238, USA",ChIJ1704UqNbwokRUcw1AdJXZ68,CLINTON-WASH AV New York City metro station,40.6834989,-73.9668944,1,11238,OK,"establishment,point_of_interest,subway_station,transit_station"
142,GEOMETRIC_CENTER,"Franklin Av, Brooklyn, NY 11238, USA",ChIJ29_IM5hbwokRK0oUefjSKt4,FRANKLIN AV New York City metro station,40.6811176,-73.9556735,1,11238,OK,"establishment,point_of_interest,subway_station,transit_station"
143,GEOMETRIC_CENTER,"Nostrand Av, Brooklyn, NY 11225, USA",ChIJGSF5tHdbwokRHNg9MTD-lGA,NOSTRAND AV New York City metro station,40.669847,-73.95046599999999,1,11225,OK,"establishment,point_of_interest,subway_station,transit_station"
144,GEOMETRIC_CENTER,"Kingston-Throop Avs Station, Brooklyn, NY 11213, USA",ChIJIe9gp4hbwokROp0QiEX7Pik,KINGSTON-THROOP New York City metro station,40.6798265,-73.9411294,1,11213,OK,"establishment,point_of_interest,subway_station,transit_station"
145,GEOMETRIC_CENTER,"Utica Av, Fulton St, Brooklyn, NY 11233, USA",ChIJSSA3T3dcwokRA-HGNw5ANAk,UTICA AV New York City metro station,40.6793738,-73.9306335,2,11233,OK,"establishment,point_of_interest,subway_station,transit_station"
146,GEOMETRIC_CENTER,"Ralph Av, Brooklyn, NY 11233, USA",ChIJPZUSD29cwokRnfoWHwS7v_Y,RALPH AV New York City metro station,40.6787336,-73.9215528,1,11233,OK,"establishment,point_of_interest,subway_station,transit_station"
147,GEOMETRIC_CENTER,"Rockaway Av, Brooklyn, NY 11233, USA",ChIJIZ6YfUJcwokRtarsuRqQtcg,ROCKAWAY AV New York City metro station,40.6784919,-73.91077179999999,1,11233,OK,"establishment,point_of_interest,subway_station,transit_station"
148,GEOMETRIC_CENTER,"Broadway Jct, Brooklyn, NY, USA",ChIJ16huMkRcwokRwMQ1go7vFbY,BROADWAY JCT New York City metro station,40.6789137,-73.9039,1,,OK,"establishment,point_of_interest,transit_station"
149,GEOMETRIC_CENTER,"Liberty Avenue Station, Brooklyn, NY 11207, USA",ChIJcfGbPk5cwokRM8wv5kZxrN8,LIBERTY AV New York City metro station,40.6744035,-73.8965181,1,11207,OK,"establishment,point_of_interest,subway_station,transit_station"
150,GEOMETRIC_CENTER,"Van Siclen Av, Brooklyn, NY 11207, USA",ChIJK2v8fktcwokRFE55slzVeTE,VAN SICLEN AVE New York City metro station,40.6780358,-73.89172470000001,1,11207,OK,"establishment,point_of_interest,subway_station,transit_station"
151,GEOMETRIC_CENTER,"Shepherd Avenue Station, Brooklyn, NY 11208, USA",ChIJ2SrZBbFdwokR7xI9w_mz8U4,SHEPHERD AV New York City metro station,40.6741264,-73.880822,1,11208,OK,"establishment,point_of_interest,subway_station,transit_station"
152,GEOMETRIC_CENTER,"Euclid Av, Brooklyn, NY 11208, USA",ChIJrYkbWrldwokRuwNnXPXY7pQ,EUCLID AV New York City metro station,40.6754013,-73.8719033,1,11208,OK,"establishment,point_of_interest,subway_station,transit_station"
153,GEOMETRIC_CENTER,"Grant Avenue Subway Station, Brooklyn, NY 11208, USA",ChIJMf9ge5VdwokRJDI5W5pAQg8,GRANT AV New York City metro station,40.6768777,-73.86534619999999,1,11208,OK,"establishment,point_of_interest,subway_station,transit_station"
154,GEOMETRIC_CENTER,"80 St, Queens, NY 11417, USA",ChIJMw1-mOxdwokROmUdQ5qemBc,80 ST New York City metro station,40.6793295,-73.8590167,1,11417,OK,"establishment,point_of_interest,subway_station,transit_station"
155,GEOMETRIC_CENTER,"88 St-Boyd Av Station, Queens, NY 11417, USA",ChIJqTYHWvJdwokRPM_5b6LNi6o,88 ST New York City metro station,40.679843,-73.85146999999999,1,11417,OK,"establishment,point_of_interest,subway_station,transit_station"
156,GEOMETRIC_CENTER,"Rockaway Blvd, Queens, NY 11417, USA",ChIJX20K2_VdwokR120chCLunqs,ROCKAWAY BLVD New York City metro station,40.6803958,-73.84383849999999,1,11417,OK,"establishment,point_of_interest,subway_station,transit_station"
157,GEOMETRIC_CENTER,"Ozone Park - Lefferts Blvd, Queens, NY 11419, USA",ChIJURKW4E5nwokRsa96NUTEeCc,OZONE PK LEFFRT New York City metro station,40.6859188,-73.8257938,1,11419,OK,"establishment,point_of_interest,transit_station"
158,GEOMETRIC_CENTER,"Aqueduct North Conduit Av., Queens, NY 11417, USA",ChIJA3AbR2RnwokRiWzICbgcZC8,AQUEDUCT N.COND New York City metro station,40.6692611,-73.83466609999999,1,11417,OK,"establishment,point_of_interest,subway_station,transit_station"
159,GEOMETRIC_CENTER,"Aqueduct Racetrack, Queens, NY 11417, USA",ChIJA3AbR2RnwokR1XY-tjtgGmU,AQUEDUCT RACETR New York City metro station,40.6721498,-73.8356843,2,11417,OK,"establishment,point_of_interest,subway_station,transit_station"
160,GEOMETRIC_CENTER,"Broad Channel Station, Queens, NY 11693, USA",ChIJw88bj3RowokRGw_a3PJQBIQ,BROAD CHANNEL New York City metro station,40.6084162,-73.8158723,1,11693,OK,"establishment,point_of_interest,subway_station,transit_station"
161,GEOMETRIC_CENTER,"Beach 90 St, Queens, NY 11693, USA",ChIJ7-zISEFowokRUC-P_6DV0og,BEACH 90 ST New York City metro station,40.5878487,-73.8140238,1,11693,OK,"establishment,point_of_interest,subway_station,transit_station"
162,GEOMETRIC_CENTER,"Beach 98 Street - Playland, Queens, NY 11694, USA",ChIJLaJmRThowokRs0D53hiWoig,BEACH 98 ST New York City metro station,40.5854889,-73.8203521,1,11694,OK,"establishment,point_of_interest,subway_station,transit_station"
163,GEOMETRIC_CENTER,"Beach 105 Street Seaside, Queens, NY 11694, USA",ChIJWfV2XjBowokR2IgpMjt6IO0,BEACH 105 ST New York City metro station,40.5832071,-73.8273751,1,11694,OK,"establishment,point_of_interest,subway_station,transit_station"
164,GEOMETRIC_CENTER,"Rockaway Park Station - Beach 116 Street, Queens, NY 11694, USA",ChIJkxx2qS5owokRxe9XgKdNsgs,ROCKAWAY PARK B New York City metro station,40.5805469,-73.8374249,1,11694,OK,"establishment,point_of_interest,subway_station,transit_station"
165,GEOMETRIC_CENTER,"Beach 67 St Station Arverne By The Sea, Queens, NY 11692, USA",ChIJTaE8b2BowokRdh5roFB5TlE,BEACH 67 ST New York City metro station,40.5909714,-73.7963169,2,11692,OK,"establishment,point_of_interest,subway_station,transit_station"
166,GEOMETRIC_CENTER,"Beach 60 St Station - Straiton Avenue, Queens, NY 11692, USA",ChIJN8yZc4xowokRJBklGCaxGZI,BEACH 60 ST New York City metro station,40.5924196,-73.7892777,1,11692,OK,"establishment,point_of_interest,subway_station,transit_station"
167,GEOMETRIC_CENTER,"Beach 44 St Station / Frank Avenue, Queens, NY 11691, USA",ChIJx8uhvpZowokRpkW3UqQq7yQ,BEACH 44 ST New York City metro station,40.5929069,-73.77598200000001,1,11691,OK,"establishment,point_of_interest,subway_station,transit_station"
168,GEOMETRIC_CENTER,"Beach 36 Street Edgemere Station, Queens, NY 11691, USA",ChIJye351rxowokR2tL6YPAsg0U,BEACH 36 ST New York City metro station,40.595532,-73.7681238,1,11691,OK,"establishment,point_of_interest,subway_station,transit_station"
169,GEOMETRIC_CENTER,"Beach 25 Street Wavecrest Station, Queens, NY 11691, USA",ChIJWcsadKZowokRSrySI1absp0,BEACH 25 ST New York City metro station,40.59946790000001,-73.7618536,1,11691,OK,"establishment,point_of_interest,subway_station,transit_station"
170,GEOMETRIC_CENTER,"Far Rockaway, Nameoke Ave, Queens, NY 11691, USA",ChIJyZEgIQdmwokRzvh6gMvIN90,FAR ROCKAWAY New York City metro station,40.6077527,-73.7517548,1,11691,OK,"establishment,point_of_interest,train_station,transit_station"
171,GEOMETRIC_CENTER,"Metro North Station, Yankee Stadium, Bronx, NY 10451, USA",ChIJ1RDOoNT1wokR8ptSC97cGCg,161/YANKEE STAD New York City metro station,40.8256289,-73.9302379,1,10451,OK,"establishment,point_of_interest,transit_station"
172,GEOMETRIC_CENTER,"170 Street Station, Bronx, NY 10452, USA",ChIJR-aGTj_0wokRBJKucApjP9o,170 ST New York City metro station,40.8400504,-73.9133477,1,10452,OK,"establishment,point_of_interest,subway_station,transit_station"
173,GEOMETRIC_CENTER,"Tremont Av, Bronx, NY 10453, USA",ChIJL-rIYG70wokRy82XuK8-mYI,TREMONT AV New York City metro station,40.8504263,-73.9052241,1,10453,OK,"establishment,point_of_interest,subway_station,transit_station"
174,GEOMETRIC_CENTER,"182nd-183rd Sts., Bronx, NY 10453, USA",ChIJQbB7p3D0wokRyfoWtH_3dN0,182-183 STS New York City metro station,40.8560934,-73.90102949999999,1,10453,OK,"establishment,point_of_interest,subway_station,transit_station"
175,GEOMETRIC_CENTER,"Fordham Road Station, Jerome Ave, Bronx, NY 10468, USA",ChIJQ0lRCYjzwokRntxd40ESgXo,FORDHAM RD New York City metro station,40.8628682,-73.9011137,1,10468,OK,"establishment,point_of_interest,subway_station,transit_station"
176,GEOMETRIC_CENTER,"Kingsbridge Road Subway Station, Bronx, NY 10458, USA",ChIJVwcvlYPzwokR6Gj9WmRP7KU,KINGSBRIDGE RD New York City metro station,40.8662419,-73.8939541,2,10458,OK,"establishment,point_of_interest,subway_station,transit_station"
177,GEOMETRIC_CENTER,"Bedford Park Blvd Station, Bronx, NY 10468, USA",ChIJRafTlp3zwokR_DXji3P3cR8,BEDFORD PK BLVD New York City metro station,40.87336639999999,-73.89017919999999,1,10468,OK,"establishment,point_of_interest,subway_station,transit_station"
178,GEOMETRIC_CENTER,"205 Street Station, Bronx, NY 10467, USA",ChIJE2D2QHLzwokROQMZuILyH3k,NORWOOD 205 ST New York City metro station,40.8741411,-73.8775224,1,10467,OK,"establishment,point_of_interest,subway_station,transit_station"
179,GEOMETRIC_CENTER,"5 Avenue-53 Street Station, New York, NY 10022, USA",ChIJq_cdlvtYwokRg0qolCeD-9A,5 AV/53 ST New York City metro station,40.7602163,-73.975543,1,10022,OK,"establishment,point_of_interest,subway_station,transit_station"
180,GEOMETRIC_CENTER,"51 St Station, Lexington &, E 51st St, New York, NY 10022, United States",ChIJlcBlyPxYwokRLJ9ONJ8qD3w,LEXINGTON AV/53 New York City metro station,40.757135,-73.9719119,1,10022,OK,"establishment,point_of_interest,subway_station,transit_station"
181,GEOMETRIC_CENTER,"Court Sq, Queens, NY 11101, USA",ChIJMczGAylZwokRRxZye4qUQuk,COURT SQ-23 ST New York City metro station,40.7467885,-73.944548,2,11101,OK,"establishment,point_of_interest,transit_station"
182,GEOMETRIC_CENTER,"Queens Plaza Subway Station, Queens, NY 11101, USA",ChIJ0Qw2XNVYwokRF8t0ORLp5FI,QUEENS PLAZA New York City metro station,40.74893590000001,-73.9373695,2,11101,OK,"establishment,point_of_interest,subway_station,transit_station"
183,GEOMETRIC_CENTER,"Steinway Street Station, Queens, NY 11103, USA",ChIJdWiqJTtfwokRzGy979q235s,STEINWAY ST New York City metro station,40.7566917,-73.9206409,1,11103,OK,"establishment,point_of_interest,subway_station,transit_station"
184,GEOMETRIC_CENTER,"46 St, Queens, NY 11103, USA",ChIJhUEmaD1fwokR5F_g_bwRpew,46 ST New York City metro station,40.7563401,-73.9133609,1,11103,OK,"establishment,point_of_interest,subway_station,transit_station"
185,GEOMETRIC_CENTER,"Northern Blvd Station, Queens, NY 11377, USA",ChIJbb1bGBpfwokRH-0VncDoqCo,NORTHERN BLVD New York City metro station,40.7531164,-73.9071111,1,11377,OK,"establishment,point_of_interest,subway_station,transit_station"
186,GEOMETRIC_CENTER,"65 Street Station, Queens, NY 11377, USA",ChIJJ8rP8QRfwokRiZe7T6iwDFs,65 ST New York City metro station,40.7491462,-73.89746869999999,1,11377,OK,"establishment,point_of_interest,subway_station,transit_station"
187,GEOMETRIC_CENTER,"Roosevelt Av - Jackson Heights Subway Station, Roosevelt Ave &, 74th Street, New York, 11372, United States",ChIJaXls0QBfwokRl9AcpPjexoQ,JKSN HT-ROOSVLT New York City metro station,40.746739,-73.8909986,1,11372,OK,"establishment,point_of_interest,subway_station,transit_station"
188,GEOMETRIC_CENTER,"Elmhurst Av, Queens, NY 11373, USA",ChIJVxCQkaxfwokRU-dnqtt_Rbo,ELMHURST AV New York City metro station,40.74244789999999,-73.8819844,1,11373,OK,"establishment,point_of_interest,subway_station,transit_station"
189,GEOMETRIC_CENTER,"Grand Av - Newtown, Queens, NY 11373, USA",ChIJK9wMeFJewokRB_t34gFDM84,GRAND-NEWTOWN New York City metro station,40.736835,-73.8775884,1,11373,OK,"establishment,point_of_interest,subway_station,transit_station"
190,GEOMETRIC_CENTER,"63 Dr-Rego Park Queens Blvd, Queens, NY 11374, USA",ChIJESvzGjdewokR2N8k6M2NsPE,63 DR-REGO PARK New York City metro station,40.7301359,-73.8623673,1,11374,OK,"establishment,point_of_interest,subway_station,transit_station"
191,GEOMETRIC_CENTER,"67 Avenue Station, Queens, NY 11375, USA",ChIJM0L6WCVewokR0OgVPGI9jvo,67 AV New York City metro station,40.7263823,-73.8515929,1,11375,OK,"establishment,point_of_interest,subway_station,transit_station"
192,GEOMETRIC_CENTER,"Forest Hills - 71 Av, Queens, NY 11375, USA",ChIJ37vyISdewokRFGIYMG1pA70,FOREST HILLS 71 New York City metro station,40.721691,-73.844521,1,11375,OK,"establishment,point_of_interest,subway_station,transit_station"
193,GEOMETRIC_CENTER,"75 Av, Queens, NY 11375, USA",ChIJKf6ev55gwokRgDl092aq_38,75 AV New York City metro station,40.718331,-73.837324,1,11375,OK,"establishment,point_of_interest,subway_station,transit_station"
194,GEOMETRIC_CENTER,"Union Turnpike - Kew Gardens Sta, Queens Blvd & Union Tpke, NY 11415, United States",ChIJLyX3EJhgwokRpDZ82H6SJuo,KEW GARDENS New York City metro station,40.7141955,-73.8309659,1,11415,OK,"establishment,point_of_interest,subway_station,transit_station"
195,GEOMETRIC_CENTER,"Briarwood - Van Wyck Blvd, &, Queens Blvd & Main St, New York, 11435, United States",ChIJL_WID79gwokR1C9hMstDeUU,BRIARWOOD New York City metro station,40.7089111,-73.820151,1,11435,OK,"establishment,point_of_interest,subway_station,transit_station"
196,GEOMETRIC_CENTER,"Sutphin Blvd - Archer Av - JFK Station, Queens, NY 11435, USA",ChIJI7COX8VgwokR2_ep5tTapLY,SUTPHIN BLVD New York City metro station,40.7005728,-73.8077071,1,11435,OK,"establishment,point_of_interest,subway_station,transit_station"
197,GEOMETRIC_CENTER,"Parsons Blvd, Queens, NY 11432, USA",ChIJvcZNqd1gwokR0NFRhSP_pg8,PARSONS BLVD New York City metro station,40.707714,-73.8028238,1,11432,OK,"establishment,point_of_interest,subway_station,transit_station"
198,GEOMETRIC_CENTER,"169 Street Station, Queens, NY 11432, USA",ChIJd-rQyx9hwokRyv2p56tN07E,169 ST New York City metro station,40.71047,-73.793604,1,11432,OK,"establishment,point_of_interest,subway_station,transit_station"
199,GEOMETRIC_CENTER,"Jamaica - 179 St, Queens, NY 11432, USA",ChIJxUgnDhphwokReitWEDjSVdk,JAMAICA 179 ST New York City metro station,40.712646,-73.783817,1,11432,OK,"establishment,point_of_interest,transit_station"
200,GEOMETRIC_CENTER,"Court Sq, Queens, NY 11101, USA",ChIJMczGAylZwokRRxZye4qUQuk,COURT SQ New York City metro station,40.7467885,-73.944548,1,11101,OK,"establishment,point_of_interest,transit_station"
201,GEOMETRIC_CENTER,"21 Street-Van Alst Station, Queens, NY 11101, USA",ChIJbwj7uCVZwokROl4ngOLhBAY,21 ST New York City metro station,40.7446224,-73.9486362,1,11101,OK,"establishment,point_of_interest,subway_station,transit_station"
202,GEOMETRIC_CENTER,"Greenpoint Av, Brooklyn, NY 11222, USA",ChIJlZdqWD9ZwokRm4wLFbfd6Po,GREENPOINT AV New York City metro station,40.7301618,-73.9540458,1,11222,OK,"establishment,point_of_interest,subway_station,transit_station"
203,GEOMETRIC_CENTER,"Nassau Av, Brooklyn, NY 11222, USA",ChIJxSImSERZwokRLJfY70XUHWY,NASSAU AV New York City metro station,40.7238944,-73.9506777,2,11222,OK,"establishment,point_of_interest,subway_station,transit_station"
204,GEOMETRIC_CENTER,"Broadway, Broadway & Union Ave, Brooklyn, NY 11206, United States",ChIJ-_jXfeNbwokRdYNKmc3NpAY,BROADWAY New York City metro station,40.7055695,-73.9500836,1,11206,OK,"establishment,point_of_interest,subway_station,transit_station"
205,GEOMETRIC_CENTER,"Myrtle - Willoughby Avs, Brooklyn, NY 11206, USA",ChIJ53kcle1bwokR9HBD92cHwpk,MYRTLE-WILLOUGH New York City metro station,40.69546709999999,-73.9492203,1,11206,OK,"establishment,point_of_interest,subway_station,transit_station"
206,GEOMETRIC_CENTER,"Bedford-Nostrand Avs Station, Brooklyn, NY 11205, USA",ChIJwU8NfZNbwokR2GoipJw53V8,BEDFORD-NOSTRAN New York City metro station,40.6898534,-73.9516398,1,11205,OK,"establishment,point_of_interest,subway_station,transit_station"
207,GEOMETRIC_CENTER,"Classon Av, Brooklyn, NY 11238, USA",ChIJSc6OIr5bwokRhT0eBC0MEcI,CLASSON AV New York City metro station,40.688873,-73.96007,1,11238,OK,"establishment,point_of_interest,subway_station,transit_station"
208,GEOMETRIC_CENTER,"47-50 Sts - Rockefeller Ctr, New York, NY 10020, USA",ChIJWQRMPv9YwokRExZRB8gYCBc,47-50 STS ROCK New York City metro station,40.75866300000001,-73.981331,1,10020,OK,"establishment,point_of_interest,subway_station,transit_station"
209,GEOMETRIC_CENTER,"42 St - Bryant Pk, New York, NY 10018, USA",ChIJCw1ewKpZwokRD_JLDK0rqaE,42 ST-BRYANT PK New York City metro station,40.7548368,-73.9841215,1,10018,OK,"establishment,point_of_interest,subway_station,transit_station"
210,GEOMETRIC_CENTER,"Broadway-Lafayette St Subway Station, New York, NY 10012, USA",ChIJrbZgnI9ZwokR9M7AjYakvM8,B'WAY-LAFAYETTE New York City metro station,40.7250151,-73.9956959,1,10012,OK,"establishment,point_of_interest,transit_station"
211,GEOMETRIC_CENTER,"2 Avenue Station, New York, NY 10002, USA",ChIJhfzlZYRZwokRLsR-L1xQc4E,2 AV New York City metro station,40.7228313,-73.98895279999999,1,10002,OK,"establishment,point_of_interest,subway_station,transit_station"
212,GEOMETRIC_CENTER,"East Broadway, New York, NY 10002, USA",ChIJ5fYKcylawokRs4ekvms4vtY,EAST BROADWAY New York City metro station,40.7144029,-73.98991880000001,1,10002,OK,"establishment,point_of_interest,subway_station,transit_station"
213,GEOMETRIC_CENTER,"York Street Subway Station: F, York Street &, Jay St, Brooklyn, NY 11201, United States",ChIJlzQUiTNawokR2Xw3BLuSO2c,YORK ST New York City metro station,40.7013482,-73.98660009999999,1,11201,OK,"establishment,point_of_interest,subway_station,transit_station"
214,GEOMETRIC_CENTER,"Bergen St, Brooklyn, NY 11201, USA",ChIJmzo3xFFawokRRYfb3ArbVmc,BERGEN ST New York City metro station,40.6860832,-73.9909074,1,11201,OK,"establishment,point_of_interest,subway_station,transit_station"
215,GEOMETRIC_CENTER,"Carroll St Station, Smith St, Brooklyn, NY 11231, USA",ChIJhUawZFdawokRgXrsqXJ64F8,CARROLL ST New York City metro station,40.6793313,-73.9954833,1,11231,OK,"establishment,point_of_interest,subway_station,transit_station"
216,GEOMETRIC_CENTER,"Smith-9th Street, 9th St, Brooklyn, NY 11231, USA",ChIJx8zIGfdawokRnOIfUEQ4q6w,SMITH-9 ST New York City metro station,40.6746048,-73.99703970000002,1,11231,OK,"establishment,point_of_interest,subway_station,transit_station"
217,GEOMETRIC_CENTER,"4 Av - 9 St Station, Brooklyn, NY 11215, USA",ChIJP5pZkPtawokRgdTLZJPaJdc,4 AV-9 ST New York City metro station,40.6698964,-73.9891106,1,11215,OK,"establishment,point_of_interest,subway_station,transit_station"
218,GEOMETRIC_CENTER,"15 St - Prospect Park Station, Brooklyn, NY 11215, USA",ChIJeRi2gR5bwokRQ3XCk1KQDg8,15 ST-PROSPECT New York City metro station,40.6604292,-73.9797224,1,11215,OK,"establishment,point_of_interest,subway_station,transit_station"
219,GEOMETRIC_CENTER,"Ditmas Av, Brooklyn, NY 11218, USA",ChIJTYfHTitbwokRIEOTF2LZTs8,DITMAS AV New York City metro station,40.63553599999999,-73.9781422,1,11218,OK,"establishment,point_of_interest,subway_station,transit_station"
220,GEOMETRIC_CENTER,"Avenue J, Brooklyn, NY 11230, USA",ChIJy4D7OMhEwokRtl2bnNFRZVM,AVENUE I New York City metro station,40.6252684,-73.9607296,1,11230,OK,"establishment,point_of_interest,subway_station,transit_station"
221,GEOMETRIC_CENTER,"Avenue N, Brooklyn, NY 11230, USA",ChIJ61Bgf-dEwokRnn9mydoQc9k,AVENUE N New York City metro station,40.6154138,-73.9741604,1,11230,OK,"establishment,point_of_interest,subway_station,transit_station"
222,GEOMETRIC_CENTER,"Avenue P, Brooklyn, NY 11223, USA",ChIJ68FGv-VEwokRVofp8llLOXI,AVENUE P New York City metro station,40.6087814,-73.9729084,1,11223,OK,"establishment,point_of_interest,subway_station,transit_station"
223,GEOMETRIC_CENTER,"Avenue X, Brooklyn, NY 11223, USA",ChIJE3O8IFFEwokRrhE24nnH1gA,AVENUE X New York City metro station,40.5896997,-73.9742413,1,11223,OK,"establishment,point_of_interest,subway_station,transit_station"
224,GEOMETRIC_CENTER,"Neptune Av, W 6th St, Brooklyn, NY 11224, USA",ChIJfTn3005EwokRdwmtUehTdc8,NEPTUNE AV New York City metro station,40.581131,-73.97457,1,11224,OK,"establishment,point_of_interest,subway_station,transit_station"
225,GEOMETRIC_CENTER,"Lexington Av - 63 St Station, New York, NY 10065, USA",ChIJk0aIJe9YwokR1EavxF8_P_g,LEXINGTON AV/63 New York City metro station,40.7648364,-73.9665819,1,10065,OK,"establishment,point_of_interest,subway_station,transit_station"
226,GEOMETRIC_CENTER,"Roosevelt Island Subway Station, New York, NY 10044, USA",ChIJYcv1Y9tYwokRJowY4GDEUuQ,ROOSEVELT ISLND New York City metro station,40.7591362,-73.9533215,2,10044,OK,"establishment,point_of_interest,subway_station,transit_station"
227,GEOMETRIC_CENTER,"21 St - Queensbridge, Queens, NY 11101, USA",ChIJtzcRrdZYwokRunD8lPf0Jio,21 ST-QNSBRIDGE New York City metro station,40.75417770000001,-73.94247419999999,1,11101,OK,"establishment,point_of_interest,transit_station"
228,GEOMETRIC_CENTER,"Jamaica - Van Wyck, Queens, NY 11418, USA",ChIJnxVuwsdgwokRF0Ep9JcWjvc,JAMAICA VAN WK New York City metro station,40.70274089999999,-73.8172514,1,11418,OK,"establishment,point_of_interest,subway_station,transit_station"
229,GEOMETRIC_CENTER,"Sutphin Blvd - Archer Av - JFK Station, Queens, NY 11435, USA",ChIJI7COX8VgwokR2_ep5tTapLY,SUTPHIN-ARCHER New York City metro station,40.7005728,-73.8077071,1,11435,OK,"establishment,point_of_interest,subway_station,transit_station"
230,GEOMETRIC_CENTER,"Jamaica Center - Parsons/Archer Station, Queens, NY, USA",ChIJmZ-DM9pgwokRYTfy6sHWw1Q,JAMAICA CENTER New York City metro station,40.7021447,-73.8008771,2,,OK,"establishment,point_of_interest,transit_station"
231,GEOMETRIC_CENTER,"72 Street Subway Station, 2nd Ave, New York, NY 10021, USA",ChIJT3CZzMFYwokRiRpq9Un_B2M,72 ST-2 AVE New York City metro station,40.7686869,-73.9584429,1,10021,OK,"establishment,point_of_interest,subway_station,transit_station"
232,GEOMETRIC_CENTER,"86 Street Subway Station, New York, NY 10028, USA",ChIJP0weCrtYwokRj3S4SxhyJkk,86 ST-2 AVE New York City metro station,40.7769631,-73.9523007,1,10028,OK,"establishment,point_of_interest,subway_station,transit_station"
233,GEOMETRIC_CENTER,"96 Street Subway Station, New York, NY 10128, USA",ChIJDdcwUq9YwokRhGcSgcaP0kA,96 ST-2 AVE New York City metro station,40.7839341,-73.9476064,1,10128,OK,"establishment,point_of_interest,subway_station,transit_station"
234,GEOMETRIC_CENTER,"Pelham Bay Park Station, Bronx, NY 10461, USA",ChIJG1cdl6eMwokRIMJP1Po2KuQ,ORCHARD BEACH New York City metro station,40.8529308,-73.8270555,1,10461,OK,"establishment,point_of_interest,subway_station,transit_station"
235,GEOMETRIC_CENTER,"World Trade Center, New York, NY 10007, USA",ChIJFSysHBlawokRuTFRpOXXM38,NEWARK HW BMEBE New York City metro station,40.7126452,-74.00989799999999,1,10007,OK,"establishment,point_of_interest,subway_station,transit_station"
236,GEOMETRIC_CENTER,"Harrison, Harrison, NY 10528, USA",ChIJf45bZBeRwokRpa5kNmI6ZA4,HARRISON New York City metro station,40.9699323,-73.7113261,2,10528,OK,"establishment,point_of_interest,train_station,transit_station"
237,GEOMETRIC_CENTER,"Journal Square, Jersey City, NJ 07306, USA",ChIJ7TxjmDFXwokRkrGD8mzm0aY,JOURNAL SQUARE New York City metro station,40.7326499,-74.0626901,1,07306,OK,"establishment,point_of_interest,train_station,transit_station"
238,GEOMETRIC_CENTER,"Christopher St Station, New York, NY 10014, USA",ChIJK5zGeZRZwokRjEM4Qsnb7tI,GROVE STREET New York City metro station,40.73357840000001,-74.00287279999999,1,10014,OK,"establishment,point_of_interest,subway_station,transit_station"
239,GEOMETRIC_CENTER,"Wall Street Station, New York, NY 10038, USA",ChIJBzCfVBZawokR6_Qcq-KQA28,EXCHANGE PLACE New York City metro station,40.7064046,-74.0095219,1,10038,OK,"establishment,point_of_interest,subway_station,transit_station"
240,GEOMETRIC_CENTER,"Newport PATH, Jersey City, NJ 07310, USA",ChIJV7jlOlRXwokR8lpfdfXelV8,PAVONIA/NEWPORT New York City metro station,40.72699,-74.03383,1,07310,OK,"establishment,point_of_interest,transit_station"
241,ROOFTOP,"18 Centre St, New York, NY 10007, USA",ChIJoazKLyJawokRYpsRFVeufRk,CITY / BUS New York City metro station,40.7130106,-74.0032796,1,10007,OK,"establishment,point_of_interest"
242,GEOMETRIC_CENTER,"Christopher St Station, New York, NY 10014, USA",ChIJK5zGeZRZwokRjEM4Qsnb7tI,CHRISTOPHER ST New York City metro station,40.73357840000001,-74.00287279999999,1,10014,OK,"establishment,point_of_interest,subway_station,transit_station"
243,GEOMETRIC_CENTER,"9th Street Station, W 9th St, New York, NY 10011, USA",ChIJzx-k7JZZwokRiqfQDMZnyr8,9TH STREET New York City metro station,40.7342315,-73.998802,1,10011,OK,"establishment,point_of_interest,train_station,transit_station"
244,GEOMETRIC_CENTER,"3 Av, New York, NY 10003, USA",ChIJr8T_-J5ZwokRFc6gOato2mg,14TH STREET New York City metro station,40.73314440000001,-73.986761,1,10003,OK,"establishment,point_of_interest,subway_station,transit_station"
245,GEOMETRIC_CENTER,"23 Street Station, E 23rd St, New York, NY 10010, USA",ChIJ3QxIAKRZwokR9GKF9UAFs8k,TWENTY THIRD ST New York City metro station,40.7413626,-73.9891335,1,10010,OK,"establishment,point_of_interest,subway_station,transit_station"
246,GEOMETRIC_CENTER,"30th AVE, Queens, NY 11102, USA",ChIJbS_fnEdfwokRXnxSSIUAA2c,THIRTY ST New York City metro station,40.76692269999999,-73.92139619999999,1,11102,OK,"establishment,point_of_interest,subway_station,transit_station"
247,GEOMETRIC_CENTER,"Ridge Rd & Abbott Rd, Lackawanna, NY 14218, USA",ChIJSU63C1AO04kRDjecXclNijY,LACKAWANNA New York City metro station,42.828208,-78.803112,1,14218,OK,"bus_station,establishment,point_of_interest,transit_station"
248,GEOMETRIC_CENTER,"33 Street Station Downtown only, New York, NY 10016, USA",ChIJKwU17AdZwokRY56D7juEbmc,THIRTY THIRD ST New York City metro station,40.7465183,-73.9817956,1,10016,OK,"establishment,point_of_interest,subway_station,transit_station"
249,APPROXIMATE,"Newark, NJ, USA",ChIJHQ6aMnBTwokRc-T-3CrcvOE,NEWARK BM BW New York City metro station,40.735657,-74.1723667,1,,OK,"locality,political"
250,GEOMETRIC_CENTER,"Spring Street Subway Station, New York, NY 10012, USA",ChIJOc_UAI1ZwokRCTHhgG2G-os,NEWARK C New York City metro station,40.7254911,-74.0036866,1,10012,OK,"establishment,point_of_interest,subway_station,transit_station"
251,GEOMETRIC_CENTER,"World Trade Center, New York, NY 10007, USA",ChIJFSysHBlawokRuTFRpOXXM38,NEWARK HM HE New York City metro station,40.7126452,-74.00989799999999,1,10007,OK,"establishment,point_of_interest,subway_station,transit_station"
252,GEOMETRIC_CENTER,"World Trade Center, New York, NY 10007, USA",ChIJFSysHBlawokRuTFRpOXXM38,PATH WTC 2 New York City metro station,40.7126452,-74.00989799999999,1,10007,OK,"establishment,point_of_interest,subway_station,transit_station"
253,GEOMETRIC_CENTER,"World Trade Center, New York, NY 10007, USA",ChIJFSysHBlawokRuTFRpOXXM38,PATH NEW WTC New York City metro station,40.7126452,-74.00989799999999,1,10007,OK,"establishment,point_of_interest,subway_station,transit_station"
254,GEOMETRIC_CENTER,"South Ferry Station, New York, NY 10004, USA",ChIJcX2qZRNawokREqzpLbC6ElI,SOUTH FERRY New York City metro station,40.701716,-74.0129311,2,10004,OK,"establishment,point_of_interest,transit_station"
255,GEOMETRIC_CENTER,"Wall Street Station, New York, NY 10038, USA",ChIJBzCfVBZawokR6_Qcq-KQA28,WALL ST New York City metro station,40.7064046,-74.0095219,1,10038,OK,"establishment,point_of_interest,subway_station,transit_station"
256,GEOMETRIC_CENTER,"Franklin St, New York, NY 10013, USA",ChIJbdNYUfVZwokR7jZWkrIDFVo,FRANKLIN ST New York City metro station,40.7190056,-74.0066801,1,10013,OK,"establishment,point_of_interest,subway_station,transit_station"
257,GEOMETRIC_CENTER,"Houston Street Station, W Houston St, New York, NY 10014, USA",ChIJneoNXI1ZwokRj6zM42TAzMQ,HOUSTON ST New York City metro station,40.7286024,-74.0053168,1,10014,OK,"establishment,point_of_interest,subway_station,transit_station"
258,GEOMETRIC_CENTER,"18 St, New York, NY 10011, USA",ChIJCeyyX7xZwokRQGN3IexNZns,18 ST New York City metro station,40.7412137,-73.9980293,1,10011,OK,"establishment,point_of_interest,subway_station,transit_station"
259,GEOMETRIC_CENTER,"66 St - Lincoln Ctr Station, New York, NY 10023, USA",ChIJEakTaPVYwokREQUfhJM7-6s,66 ST-LINCOLN New York City metro station,40.7736972,-73.9822288,1,10023,OK,"establishment,point_of_interest,subway_station,transit_station"
260,GEOMETRIC_CENTER,"72 Street Subway Station, 2nd Ave, New York, NY 10021, USA",ChIJT3CZzMFYwokRiRpq9Un_B2M,72 ST New York City metro station,40.7686869,-73.9584429,1,10021,OK,"establishment,point_of_interest,subway_station,transit_station"
261,GEOMETRIC_CENTER,"116 Street Station - Columbia University, New York, NY 10027, USA",ChIJe4OMvj72wokRoVLJ42Dlle8,116 ST-COLUMBIA New York City metro station,40.808043,-73.9639122,1,10027,OK,"establishment,point_of_interest,subway_station,transit_station"
262,GEOMETRIC_CENTER,"137 St - City College, New York, NY 10031, USA",ChIJMQ1veGb2wokRiKENnz-Nu1A,137 ST CITY COL New York City metro station,40.821374,-73.95440099999999,1,10031,OK,"establishment,point_of_interest,subway_station,transit_station"
263,GEOMETRIC_CENTER,"157 Street Station, New York, NY 10032, USA",ChIJHfwh04X2wokRWQQqiYl1nEk,157 ST New York City metro station,40.83418289999999,-73.94481549999999,1,10032,OK,"establishment,point_of_interest,subway_station,transit_station"
264,GEOMETRIC_CENTER,"191 Street Subway Station, New York, NY 10040, USA",ChIJraQwWxv0wokRvzhNfxjJT_0,191 ST New York City metro station,40.8553094,-73.9295786,1,10040,OK,"establishment,point_of_interest,subway_station,transit_station"
265,GEOMETRIC_CENTER,"207 St Station, New York, NY 10034, USA",ChIJmfW-A_bzwokRke6M_NF8dKw,207 ST New York City metro station,40.8644195,-73.91894169999999,1,10034,OK,"establishment,point_of_interest,subway_station,transit_station"
266,GEOMETRIC_CENTER,"215 St, New York, NY 10034, USA",ChIJhTaId_PzwokRPhh0qqBySQE,215 ST New York City metro station,40.8696056,-73.9153168,1,10034,OK,"establishment,point_of_interest,subway_station,transit_station"
267,GEOMETRIC_CENTER,"Marble Hill, New York, NY 10034, USA",ChIJHaFPlZLzwokRowjI6AIzWDw,MARBLE HILL-225 New York City metro station,40.8747639,-73.9121132,2,10034,OK,"establishment,point_of_interest,train_station,transit_station"
268,GEOMETRIC_CENTER,"231 St, Bronx, NY 10463, USA",ChIJv1I27JbzwokRvJPHfEQnFRU,231 ST New York City metro station,40.8789923,-73.904939,1,10463,OK,"establishment,point_of_interest,subway_station,transit_station"
269,GEOMETRIC_CENTER,"238 St, Bronx, NY 10463, USA",ChIJ7fV5zbzzwokRSsPexW2CStY,238 ST New York City metro station,40.884873,-73.9006843,1,10463,OK,"establishment,point_of_interest,subway_station,transit_station"
270,GEOMETRIC_CENTER,"Van Cortlandt Park - 242 St, Bronx, NY 10471, USA",ChIJz5gLEKXzwokRbRFYXsvEFW4,V.CORTLANDT PK New York City metro station,40.889904,-73.8982903,1,10471,OK,"establishment,point_of_interest,subway_station,transit_station"
271,GEOMETRIC_CENTER,"Bowling Green Station, New York, NY 10004, USA",ChIJKXQp3BNawokR6gUmnJXw58c,BOWLING GREEN New York City metro station,40.7048108,-74.0144596,1,10004,OK,"establishment,point_of_interest,subway_station,transit_station"
272,GEOMETRIC_CENTER,"Brooklyn Bridge City Hall Station, New York, NY 10013, USA",ChIJDQXLLyJawokRI-xvbHx0AIM,BROOKLYN BRIDGE New York City metro station,40.7128218,-74.0042836,1,10013,OK,"establishment,point_of_interest,subway_station,transit_station"
273,GEOMETRIC_CENTER,"Bleecker St, New York, NY 10012, USA",ChIJxYzCX4VZwokRbtl_8Jh2yvg,BLEECKER ST New York City metro station,40.7259346,-73.9946724,1,10012,OK,"establishment,point_of_interest,subway_station,transit_station"
274,GEOMETRIC_CENTER,"Astor Pl, New York, NY 10003sx, USA",ChIJDXHhuZtZwokRq9S8UXj2EfQ,ASTOR PL New York City metro station,40.7300944,-73.9908406,1,10003sx,OK,"establishment,point_of_interest,subway_station,transit_station"
275,GEOMETRIC_CENTER,"33 Street Station Downtown only, New York, NY 10016, USA",ChIJKwU17AdZwokRY56D7juEbmc,33 ST New York City metro station,40.7465183,-73.9817956,1,10016,OK,"establishment,point_of_interest,subway_station,transit_station"
276,GEOMETRIC_CENTER,"Grand Central Terminal, New York, NY 10017, USA",ChIJLVaKiQFZwokRgcybX3K6Pzg,GRD CNTRL-42 ST New York City metro station,40.7526116,-73.977327,1,10017,OK,"establishment,point_of_interest,transit_station"
277,GEOMETRIC_CENTER,"51 St Station, Lexington &, E 51st St, New York, NY 10022, United States",ChIJlcBlyPxYwokRLJ9ONJ8qD3w,51 ST New York City metro station,40.757135,-73.9719119,2,10022,OK,"establishment,point_of_interest,subway_station,transit_station"
278,GEOMETRIC_CENTER,"68 Street Station, New York, NY 10021, USA",ChIJ_Xr5wetYwokRd1jnf92jyUc,68ST-HUNTER CO New York City metro station,40.7678741,-73.9638866,1,10021,OK,"establishment,point_of_interest,subway_station,transit_station"
279,GEOMETRIC_CENTER,"Cathedral Parkway 110 Street Station, New York, NY 10025, USA",ChIJQei0Ejv2wokRkeGsy4Qzclw,110 ST New York City metro station,40.8041784,-73.96672579999999,1,10025,OK,"establishment,point_of_interest,subway_station,transit_station"
280,GEOMETRIC_CENTER,"138 Street Station, Bronx, NY 10451, USA",ChIJtanI3tv1wokRB7a-232CeUM,138/GRAND CONC New York City metro station,40.8131924,-73.9297977,1,10451,OK,"establishment,point_of_interest,subway_station,transit_station"
281,GEOMETRIC_CENTER,"149 St - Grand Concourse, Bronx, NY 10451, USA",ChIJFZSc-ND1wokRe5wIin1mXxM,149/GRAND CONC New York City metro station,40.818323,-73.92718280000001,1,10451,OK,"establishment,point_of_interest,transit_station"
282,GEOMETRIC_CENTER,"167 St, Bronx, NY 10452, USA",ChIJwY6VtDD0wokR504b_nGx3ZA,167 ST New York City metro station,40.8344848,-73.9180823,1,10452,OK,"establishment,point_of_interest,subway_station,transit_station"
283,GEOMETRIC_CENTER,"Mount Eden Av, Bronx, NY 10452, USA",ChIJ03hSexX0wokRoEVMshXz7qE,MT EDEN AV New York City metro station,40.8445285,-73.9146157,1,10452,OK,"establishment,point_of_interest,subway_station,transit_station"
284,GEOMETRIC_CENTER,"176 St, Bronx, NY 10453, USA",ChIJ47ObV2v0wokR6Ezbbrb63P4,176 ST New York City metro station,40.84845929999999,-73.9117443,1,10453,OK,"establishment,point_of_interest,subway_station,transit_station"
285,GEOMETRIC_CENTER,"Burnside Av, Bronx, NY 10453, USA",ChIJTYx3DnL0wokRr7DMKhTNwgM,BURNSIDE AV New York City metro station,40.85345299999999,-73.90768400000002,1,10453,OK,"establishment,point_of_interest,transit_station"
286,GEOMETRIC_CENTER,"183 Street / Jerome Avenue, Bronx, NY 10453, USA",ChIJ_YD33nb0wokRWtYZqPNlO3Q,183 ST New York City metro station,40.8583924,-73.90397810000002,1,10453,OK,"establishment,point_of_interest,subway_station,transit_station"
287,GEOMETRIC_CENTER,"Mosholu Pkwy, Bronx, NY 10467, USA",ChIJj9-7NwvzwokRRyBV-WXJOJE,MOSHOLU PKWY New York City metro station,40.87975,-73.884655,1,10467,OK,"establishment,point_of_interest,subway_station,transit_station"
288,ROOFTOP,"Woodlawn, 555 E 233rd St, Bronx, NY 10466, USA",ChIJ3fh2eyDzwokRcP3Ume3e5Yo,WOODLAWN New York City metro station,40.8955885,-73.8627133,1,10466,OK,"establishment,point_of_interest,train_station,transit_station"
289,GEOMETRIC_CENTER,"110 Street Station Central Park North, New York, NY 10026, USA",ChIJOWjlaxr2wokROplNiblGDbA,CENTRAL PK N110 New York City metro station,40.7987376,-73.9522934,1,10026,OK,"establishment,point_of_interest,subway_station,transit_station"
290,GEOMETRIC_CENTER,"148th St Lenox Terminal Station, New York, NY 10039, USA",ChIJIaAQZ3_2wokRGkz3rnvdhEQ,HARLEM 148 ST New York City metro station,40.8240504,-73.9369385,1,10039,OK,"establishment,point_of_interest,subway_station,transit_station"
291,GEOMETRIC_CENTER,"3 Av - 149 St, Bronx, NY 10455, USA",ChIJRTrPt8j1wokRhI69E1Ll5vE,3 AV-149 ST New York City metro station,40.8160451,-73.9179347,1,10455,OK,"establishment,point_of_interest,subway_station,transit_station"
292,GEOMETRIC_CENTER,"Vernon Blvd - Jackson Av, Queens, NY 11101, USA",ChIJ11nwnSRZwokRREp3r3kJP3U,JACKSON AV New York City metro station,40.7426713,-73.9537248,1,11101,OK,"establishment,point_of_interest,subway_station,transit_station"
293,GEOMETRIC_CENTER,"Intervale Av, Bronx, NY 10459, USA",ChIJxaxAMVP0wokRk6kQvlbnxE0,INTERVALE AV New York City metro station,40.8223159,-73.8966497,1,10459,OK,"establishment,point_of_interest,subway_station,transit_station"
294,GEOMETRIC_CENTER,"Simpson St, Bronx, NY 10459, USA",ChIJX28ZXFT0wokRAm-Jm0uWxf8,SIMPSON ST New York City metro station,40.8242542,-73.89289169999999,1,10459,OK,"establishment,point_of_interest,subway_station,transit_station"
295,GEOMETRIC_CENTER,"Freeman St, Bronx, NY 10459, USA",ChIJNYIbnlf0wokRJxrTNrQT1Cc,FREEMAN ST New York City metro station,40.8301745,-73.8917088,2,10459,OK,"establishment,point_of_interest,subway_station,transit_station"
296,GEOMETRIC_CENTER,"174 St Station Manhattan & Brooklyn, Bronx, NY 10460, USA",ChIJgfSjmfX0wokR3f4FPalWY6Q,174 ST New York City metro station,40.8374137,-73.8877973,2,10460,OK,"establishment,point_of_interest,subway_station,transit_station"
297,GEOMETRIC_CENTER,"West Farms Square - E Tremont Av Station, Bronx, NY 10460, USA",ChIJWdZqII30wokRa5X2Xh5IXs4,WEST FARMS SQ New York City metro station,40.8405859,-73.8796649,1,10460,OK,"establishment,point_of_interest,subway_station,transit_station"
298,GEOMETRIC_CENTER,"E 180 Street, Bronx, NY 10460, USA",ChIJbTsHuJP0wokR90bI72eoTzA,E 180 ST New York City metro station,40.841894,-73.873488,1,10460,OK,"establishment,point_of_interest,subway_station,transit_station"
299,GEOMETRIC_CENTER,"Bronx Park East, Bronx, NY 10462, USA",ChIJa-G9tJn0wokRqMBX2oBkB6A,BRONX PARK EAST New York City metro station,40.8489938,-73.8683613,1,10462,OK,"establishment,point_of_interest,subway_station,transit_station"
300,GEOMETRIC_CENTER,"Pelham Pkwy, Bronx, NY 10469, USA",ChIJzy8wvlnzwokRJZ-Wfe9QDq4,PELHAM PKWY New York City metro station,40.8588602,-73.8554592,1,10469,OK,"establishment,point_of_interest,subway_station,transit_station"
301,GEOMETRIC_CENTER,"Allerton Av, Bronx, NY 10467, USA",ChIJmdw9uWfzwokRY5ba4l5gMDA,ALLERTON AV New York City metro station,40.86539370000001,-73.8672655,1,10467,OK,"establishment,point_of_interest,subway_station,transit_station"
302,GEOMETRIC_CENTER,"Burke Av Station, Bronx, NY 10467, USA",ChIJJ01KjGnzwokRRf-DB2VUBcw,BURKE AV New York City metro station,40.8714516,-73.8670726,1,10467,OK,"establishment,point_of_interest,subway_station,transit_station"
303,GEOMETRIC_CENTER,"Gun Hill Rd, Bronx, NY 10467, USA",ChIJx18faBXzwokRiFkzlJusSK8,GUN HILL RD New York City metro station,40.8777392,-73.86630459999999,1,10467,OK,"establishment,point_of_interest,subway_station,transit_station"
304,GEOMETRIC_CENTER,"169 Street Station, Queens, NY 11432, USA",ChIJd-rQyx9hwokRyv2p56tN07E,219 ST New York City metro station,40.71047,-73.793604,1,11432,OK,"establishment,point_of_interest,subway_station,transit_station"
305,GEOMETRIC_CENTER,"225 Street Station, New York, NY 10034, USA",ChIJ6W279pLzwokRZAkh7GXtz9k,225 ST New York City metro station,40.8743487,-73.91043309999999,1,10034,OK,"establishment,point_of_interest,subway_station,transit_station"
306,GEOMETRIC_CENTER,"233 St, Bronx, NY 10466, USA",ChIJA-6cGifzwokR7oDEv8N7V-M,233 ST New York City metro station,40.8932191,-73.85747719999999,1,10466,OK,"establishment,point_of_interest,subway_station,transit_station"
307,GEOMETRIC_CENTER,"Nereid Av, Bronx, NY 10470, USA",ChIJo1zn59nywokRCu2ClTnIqe4,NEREID AV New York City metro station,40.8984566,-73.8542993,1,10470,OK,"establishment,point_of_interest,subway_station,transit_station"
308,GEOMETRIC_CENTER,"241 Street Station, Bronx, NY 10470, USA",ChIJM_TmzNHywokR2WYmgb0rF38,WAKEFIELD/241 New York City metro station,40.9035209,-73.8504209,1,10470,OK,"establishment,point_of_interest,subway_station,transit_station"
309,GEOMETRIC_CENTER,"3 Avenue-138 Street Station, Bronx, NY 10454, USA",ChIJu9zDkNz1wokR4VOWTiFp7Js,3 AV 138 ST New York City metro station,40.8104721,-73.9261391,2,10454,OK,"establishment,point_of_interest,subway_station,transit_station"
310,GEOMETRIC_CENTER,"Brook Av, Bronx, NY 10454, USA",ChIJZVFRMsL1wokRkvFLNCKqQv0,BROOK AV New York City metro station,40.8075666,-73.91926629999999,1,10454,OK,"establishment,point_of_interest,subway_station,transit_station"
311,GEOMETRIC_CENTER,"Cypress Av, Bronx, NY 10454, USA",ChIJtfC-PcD1wokRCobElAYFCMA,CYPRESS AV New York City metro station,40.8052426,-73.9137116,1,10454,OK,"establishment,point_of_interest,subway_station,transit_station"
312,GEOMETRIC_CENTER,"E 143 St Station, Bronx, NY 10454, USA",ChIJA6t9TLn1wokRtTh66ei3868,E 143/ST MARY'S New York City metro station,40.8082006,-73.9078528,1,10454,OK,"establishment,point_of_interest,subway_station,transit_station"
313,GEOMETRIC_CENTER,"3 Av - 149 St, Bronx, NY 10455, USA",ChIJRTrPt8j1wokRhI69E1Ll5vE,E 149 ST New York City metro station,40.8160451,-73.9179347,1,10455,OK,"establishment,point_of_interest,subway_station,transit_station"
314,GEOMETRIC_CENTER,"Longwood Av Station, Bronx, NY 10455, USA",ChIJ_Ui7l671wokRadX6P8gpzgE,LONGWOOD AV New York City metro station,40.8163341,-73.89624309999999,1,10455,OK,"establishment,point_of_interest,subway_station,transit_station"
315,GEOMETRIC_CENTER,"Hunts Point Av, Bronx, NY 10474, USA",ChIJJ2YwNVX0wokROwBzJVlEBtw,HUNTS POINT AV New York City metro station,40.8208037,-73.89088120000001,1,10474,OK,"establishment,point_of_interest,subway_station,transit_station"
316,GEOMETRIC_CENTER,"Whitlock Av, Bronx, NY 10459, USA",ChIJsRqW4Pj0wokRaY7Mw5EJ1n8,WHITLOCK AV New York City metro station,40.8267442,-73.8863456,1,10459,OK,"establishment,point_of_interest,subway_station,transit_station"
317,GEOMETRIC_CENTER,"Elder Avenue Station, Elder Ave & Westchester Avenue, Bronx, NY 10472, United States",ChIJBw1vmvr0wokReHabbFGovY4,ELDER AV New York City metro station,40.82859819999999,-73.8791735,1,10472,OK,"establishment,point_of_interest,subway_station,transit_station"
318,APPROXIMATE,"New York, NY, USA",ChIJOwg_06VPwokRYv534QaPC8g,MORISN AV/SNDVW New York City metro station,40.7127753,-74.0059728,1,,OK,"locality,political"
319,GEOMETRIC_CENTER,"St Lawrence Av, Bronx, NY 10472, USA",ChIJhTerkOn0wokRQ3bEiAZMFhU,ST LAWRENCE AV New York City metro station,40.8315326,-73.8672593,1,10472,OK,"establishment,point_of_interest,subway_station,transit_station"
320,GEOMETRIC_CENTER,"Parkchester, Bronx, NY 10472, USA",ChIJB7ngPMH0wokRNkQDxZMas1E,PARKCHESTER New York City metro station,40.8332116,-73.8610088,1,10472,OK,"establishment,point_of_interest,subway_station,transit_station"
321,GEOMETRIC_CENTER,"Castle Hill Av, Bronx, NY 10462, USA",ChIJnVWmMcj0wokRM0BeXsXUD1c,CASTLE HILL AV New York City metro station,40.8342812,-73.85168469999999,1,10462,OK,"establishment,point_of_interest,subway_station,transit_station"
322,GEOMETRIC_CENTER,"Zerega Av, Bronx, NY 10461, USA",ChIJCaMhzrX0wokRfdXjcWdiCDI,ZEREGA AV New York City metro station,40.8368105,-73.8466696,1,10461,OK,"establishment,point_of_interest,subway_station,transit_station"
323,GEOMETRIC_CENTER,"Westchester Sq - E Tremont Av, Bronx, NY 10461, USA",ChIJ4Uo6R7P0wokRVmw22bNU7us,WESTCHESTER SQ New York City metro station,40.8401247,-73.8428258,2,10461,OK,"establishment,point_of_interest,subway_station,transit_station"
324,GEOMETRIC_CENTER,"Middletown Rd, Bronx, NY 10461, USA",ChIJv5g8H1KLwokR4PRgcPAS6ds,MIDDLETOWN RD New York City metro station,40.8439231,-73.83616549999999,1,10461,OK,"establishment,point_of_interest,subway_station,transit_station"
325,GEOMETRIC_CENTER,"Buhre Av, Bronx, NY 10461, USA",ChIJqYx80VCLwokR325i7eIyQf0,BUHRE AV New York City metro station,40.8469121,-73.8323569,1,10461,OK,"establishment,point_of_interest,subway_station,transit_station"
326,GEOMETRIC_CENTER,"Pelham Bay Park Station, Bronx, NY 10461, USA",ChIJG1cdl6eMwokRIMJP1Po2KuQ,PELHAM BAY PARK New York City metro station,40.8529308,-73.8270555,1,10461,OK,"establishment,point_of_interest,subway_station,transit_station"
327,ROOFTOP,"5 Avenue Station, 1-5, E 59th St, New York, NY 10022, USA",ChIJu-V5DfBYwokRQhqiDAK7eNg,5 AVE New York City metro station,40.7649305,-73.9725117,1,10022,OK,"establishment,point_of_interest,subway_station,transit_station"
328,GEOMETRIC_CENTER,"Vernon Blvd - Jackson Av, Queens, NY 11101, USA",ChIJ11nwnSRZwokRREp3r3kJP3U,VERNON-JACKSON New York City metro station,40.7426713,-73.9537248,1,11101,OK,"establishment,point_of_interest,subway_station,transit_station"
329,GEOMETRIC_CENTER,"Hunters Point Av, Queens, NY 11101, USA",ChIJ3bT1bSVZwokRJN_6JR8BkvU,HUNTERS PT AV New York City metro station,40.7424176,-73.9481564,1,11101,OK,"establishment,point_of_interest,subway_station,transit_station"
330,GEOMETRIC_CENTER,"Queens Plaza Subway Station, Queens, NY 11101, USA",ChIJ0Qw2XNVYwokRF8t0ORLp5FI,QUEENSBORO PLZ New York City metro station,40.74893590000001,-73.9373695,1,11101,OK,"establishment,point_of_interest,subway_station,transit_station"
331,GEOMETRIC_CENTER,"36 Avenue - Washington Avenue, Queens, NY 11106, USA",ChIJUaCcBS5fwokR_Sv3-4Zsm-0,36 AV New York City metro station,40.7566357,-73.9296452,1,11106,OK,"establishment,point_of_interest,subway_station,transit_station"
332,GEOMETRIC_CENTER,"30th AVE, Queens, NY 11102, USA",ChIJbS_fnEdfwokRXnxSSIUAA2c,30 AV New York City metro station,40.76692269999999,-73.92139619999999,1,11102,OK,"establishment,point_of_interest,subway_station,transit_station"
333,GEOMETRIC_CENTER,"Ditmars Blvd Station, Queens, NY 11105, USA",ChIJnQjE-2dfwokRarBj5XPU7_c,ASTORIA BLVD New York City metro station,40.7750149,-73.9120873,1,11105,OK,"establishment,point_of_interest,subway_station,transit_station"
334,GEOMETRIC_CENTER,"Ditmars Blvd Station, Queens, NY 11105, USA",ChIJnQjE-2dfwokRarBj5XPU7_c,ASTORIA DITMARS New York City metro station,40.7750149,-73.9120873,1,11105,OK,"establishment,point_of_interest,subway_station,transit_station"
335,GEOMETRIC_CENTER,"33 St, Queens, NY 11101, USA",ChIJ0S2EOtRewokRyGnyq50mNfY,33 ST-RAWSON ST New York City metro station,40.744587,-73.93099699999999,1,11101,OK,"establishment,point_of_interest,transit_station"
336,GEOMETRIC_CENTER,"40 St - Lowery St, Queens, NY 11104, USA",ChIJFdv91tlewokRU0FZAchp9EQ,40 ST LOWERY ST New York City metro station,40.7438729,-73.92423409999999,1,11104,OK,"establishment,point_of_interest,subway_station,transit_station"
337,GEOMETRIC_CENTER,"46 St-Bliss St Station, Queens, NY 11104, USA",ChIJaw-gLNlewokRI8ptTGYJtfI,46 ST BLISS ST New York City metro station,40.7430528,-73.91824299999999,1,11104,OK,"establishment,point_of_interest,subway_station,transit_station"
338,GEOMETRIC_CENTER,"52 St-Lincoln Av Station, Queens, NY 11377, USA",ChIJEdIf4t9ewokRKr3oEnYLUTQ,52 ST New York City metro station,40.7441824,-73.912301,1,11377,OK,"establishment,point_of_interest,subway_station,transit_station"
339,GEOMETRIC_CENTER,"61 St-Woodside Station, Queens, NY 11377, USA",ChIJ0dNABR1fwokRt1TkXLDNj9c,61 ST WOODSIDE New York City metro station,40.7457078,-73.90290399999999,1,11377,OK,"establishment,point_of_interest,subway_station,transit_station"
340,GEOMETRIC_CENTER,"69 St-Fisk Av Station, Queens, NY 11377, USA",ChIJkfWgvwNfwokRiNti6EAwkyA,69 ST New York City metro station,40.7462915,-73.8963203,1,11377,OK,"establishment,point_of_interest,subway_station,transit_station"
341,GEOMETRIC_CENTER,"Roosevelt Av - Jackson Heights Subway Station, Roosevelt Ave &, 74th Street, New York, 11372, United States",ChIJaXls0QBfwokRl9AcpPjexoQ,74 ST-BROADWAY New York City metro station,40.746739,-73.8909986,1,11372,OK,"establishment,point_of_interest,subway_station,transit_station"
342,GEOMETRIC_CENTER,"82 Street Station, Queens, NY 11372, USA",ChIJPR5BMKlfwokRvB1MnLwOXSU,82 ST-JACKSON H New York City metro station,40.7477145,-73.8839373,1,11372,OK,"establishment,point_of_interest,subway_station,transit_station"
343,GEOMETRIC_CENTER,"90 St-Elmhurst Av Station, Queens, NY 11372, USA",ChIJ1xkEI7BfwokR27_329GG_0U,90 ST-ELMHURST New York City metro station,40.7485008,-73.87657229999999,1,11372,OK,"establishment,point_of_interest,subway_station,transit_station"
344,GEOMETRIC_CENTER,"Junction Blvd, Queens, NY 11368, USA",ChIJT_0a3LlfwokRiJZ-WI32mA0,JUNCTION BLVD New York City metro station,40.749203,-73.8693365,1,11368,OK,"establishment,point_of_interest,subway_station,transit_station"
345,GEOMETRIC_CENTER,"103 St-Corona Plaza Station, Queens, NY 11368, USA",ChIJwSZRrMdfwokRV6lmrhZstc4,103 ST-CORONA New York City metro station,40.7498268,-73.862746,1,11368,OK,"establishment,point_of_interest,subway_station,transit_station"
346,GEOMETRIC_CENTER,"Mets-Willets Point, Queens, NY 11368, USA",ChIJ8yUuCt9fwokRjQCAd5couzo,METS-WILLETS PT New York City metro station,40.75239,-73.8437,2,11368,OK,"establishment,point_of_interest,train_station,transit_station"
347,GEOMETRIC_CENTER,"Main - St, Queens, NY 11354, USA",ChIJxeDr2BFgwokRaDPtiqTsNCI,FLUSHING-MAIN New York City metro station,40.7595582,-73.82992209999999,1,11354,OK,"establishment,point_of_interest,subway_station,transit_station"
348,ROOFTOP,"34th Street-Hudson Yards Subway Station, 380-394 11th Ave, New York, NY 10001, USA",ChIJZUlTfrRZwokR8fnqur1CgA4,34 ST-HUDSON YD New York City metro station,40.7549713,-74.0010084,1,10001,OK,"establishment,point_of_interest,subway_station,transit_station"
349,GEOMETRIC_CENTER,"Clark Street Subway Station, Brooklyn, NY 11201, USA",ChIJ6-mL3jdawokRgXq3mdfWCCQ,CLARK ST New York City metro station,40.6974822,-73.9931416,1,11201,OK,"establishment,point_of_interest,subway_station,transit_station"
350,GEOMETRIC_CENTER,"Hoyt Street Station, Brooklyn, NY 11201, USA",ChIJQdmEmkxawokR5NUShUf6hm4,HOYT ST New York City metro station,40.690544,-73.98506200000001,1,11201,OK,"establishment,point_of_interest,subway_station,transit_station"
351,GEOMETRIC_CENTER,"Nevins St, Brooklyn, NY 11217, USA",ChIJfdfpA7NbwokRxNxaIgoFcfQ,NEVINS ST New York City metro station,40.6882963,-73.9805206,1,11217,OK,"establishment,point_of_interest,subway_station,transit_station"
352,GEOMETRIC_CENTER,"Nevins St, Brooklyn, NY 11217, USA",ChIJfdfpA7NbwokRxNxaIgoFcfQ,NEVINS ST New York City metro station,40.6882963,-73.9805206,1,11217,OK,"establishment,point_of_interest,subway_station,transit_station"
353,GEOMETRIC_CENTER,"Eastern Parkway Brooklyn Museum Station, Brooklyn, NY 11238, USA",ChIJVSi0PQpbwokRz1rolinPqKg,EASTN PKWY-MUSM New York City metro station,40.6719938,-73.9642065,1,11238,OK,"establishment,point_of_interest,subway_station,transit_station"
354,GEOMETRIC_CENTER,"Kingston Av, Brooklyn, NY 11213, USA",ChIJNSjPs3hbwokRw0ZNrhUnB-0,KINGSTON AV New York City metro station,40.6692845,-73.9422927,1,11213,OK,"establishment,point_of_interest,subway_station,transit_station"
355,GEOMETRIC_CENTER,"Utica Avenue Subway Station, Brooklyn, NY 11213, USA",ChIJCa-fKn5cwokRklewnzpi_1Q,CROWN HTS-UTICA New York City metro station,40.6689469,-73.93183379999999,1,11213,OK,"establishment,point_of_interest,subway_station,transit_station"
356,GEOMETRIC_CENTER,"Sutter Av - Rutland Rd, Rutland Road & E 98th St, Brooklyn, NY, United States",ChIJRcLy9IhcwokRwZz9lXo1zWk,SUTTER AV-RUTLD New York City metro station,40.6649921,-73.92290849999999,1,,OK,"establishment,point_of_interest,subway_station,transit_station"
357,GEOMETRIC_CENTER,"Saratoga Av, Brooklyn, NY 11212, USA",ChIJdc5SdoxcwokR5MW6PfyfOhI,SARATOGA AV New York City metro station,40.6615729,-73.9160543,1,11212,OK,"establishment,point_of_interest,subway_station,transit_station"
358,GEOMETRIC_CENTER,"Junius St, Brooklyn, NY 11212, USA",ChIJkWkWwfdcwokRUylnw3R0evw,JUNIUS ST New York City metro station,40.6634442,-73.90291169999999,1,11212,OK,"establishment,point_of_interest,subway_station,transit_station"
359,GEOMETRIC_CENTER,"Pennsylvania Av Station, Brooklyn, NY 11207, USA",ChIJ0TK8ClZcwokROqfxmHDdoIk,PENNSYLVANIA AV New York City metro station,40.6646911,-73.8941747,1,11207,OK,"establishment,point_of_interest,subway_station,transit_station"
360,GEOMETRIC_CENTER,"New Lots Av, Brooklyn, NY 11212, USA",ChIJK991IvpcwokRKlyWkIXioDg,NEW LOTS AV New York City metro station,40.6588826,-73.899213,1,11212,OK,"establishment,point_of_interest,subway_station,transit_station"
361,GEOMETRIC_CENTER,"President Street Station, Brooklyn, NY 11225, USA",ChIJXT_W4XZbwokRErd_xcIcypQ,PRESIDENT ST New York City metro station,40.6681585,-73.9506586,1,11225,OK,"establishment,point_of_interest,subway_station,transit_station"
362,GEOMETRIC_CENTER,"Sterling St, Brooklyn, NY 11225, USA",ChIJ59SHynFbwokRKRKEsB7FU8c,STERLING ST New York City metro station,40.6632908,-73.951044,1,11225,OK,"establishment,point_of_interest,subway_station,transit_station"
363,GEOMETRIC_CENTER,"Winthrop St, Brooklyn, NY 11225, USA",ChIJF8H1LG9bwokRKEUFxopk2pc,WINTHROP ST New York City metro station,40.6569618,-73.95023069999999,1,11225,OK,"establishment,point_of_interest,subway_station,transit_station"
364,GEOMETRIC_CENTER,"Beverly Rd, Brooklyn, NY 11226, USA",ChIJrxvswERbwokRN0S9Upes9uo,BEVERLY RD New York City metro station,40.6450913,-73.9489985,2,11226,OK,"establishment,point_of_interest,subway_station,transit_station"
365,GEOMETRIC_CENTER,"Newkirk Avenue Station, Nostrand Ave, Brooklyn, NY 11226, USA",ChIJlevE3E9bwokR-lKeVcJwuZE,NEWKIRK AV New York City metro station,40.6399939,-73.94842059999999,1,11226,OK,"establishment,point_of_interest,subway_station,transit_station"
366,GEOMETRIC_CENTER,"Atlantic Av-Barclays Center, Atlantic Ave & Flatbush Ave, Brooklyn, NY, United States",ChIJsQdV5K1bwokRjtqc2QlHIWw,FLATBUSH AV-B.C New York City metro station,40.6834617,-73.9765824,1,,OK,"establishment,point_of_interest,subway_station,transit_station"
367,GEOMETRIC_CENTER,"Morris Park Station, Bronx, NY 10462, USA",ChIJt8b4xKD0wokREz1ig1s5wTI,MORRIS PARK New York City metro station,40.854539,-73.8602974,1,10462,OK,"establishment,point_of_interest,subway_station,transit_station"
368,GEOMETRIC_CENTER,"Baychester Av, Bronx, NY 10469, USA",ChIJp2YrZ8yMwokRMwk0qXFv_GU,BAYCHESTER AV New York City metro station,40.8790983,-73.8381028,1,10469,OK,"establishment,point_of_interest,subway_station,transit_station"
369,GEOMETRIC_CENTER,"Eastchester - Dyre Av, Bronx, NY 10466, USA",ChIJy9SHeteMwokRj0-jYNUxxzs,EASTCHSTER/DYRE New York City metro station,40.8879392,-73.8310628,1,10466,OK,"establishment,point_of_interest,subway_station,transit_station"
370,GEOMETRIC_CENTER,"St George, Staten Island, NY 10301, USA",ChIJ9SGWhNNPwokRXflVNiVieIs,ST. GEORGE New York City metro station,40.64400390000001,-74.0733248,1,10301,OK,"establishment,point_of_interest,train_station,transit_station"
371,GEOMETRIC_CENTER,"Tompkinsville Station, Staten Island, NY 10304, USA",ChIJc-nJ4sxPwokRNHWYj8Zbq7I,TOMPKINSVILLE New York City metro station,40.6376266,-74.07502889999999,1,10304,OK,"establishment,point_of_interest,train_station,transit_station"
372,GEOMETRIC_CENTER,"World Trade Center, New York, NY 10007, USA",ChIJFSysHBlawokRuTFRpOXXM38,RIT-MANHATTAN New York City metro station,40.7126452,-74.00989799999999,2,10007,OK,"establishment,point_of_interest,subway_station,transit_station"
373,GEOMETRIC_CENTER,"Roosevelt Av - Jackson Heights Subway Station, Roosevelt Ave &, 74th Street, New York, 11372, United States",ChIJaXls0QBfwokRl9AcpPjexoQ,RIT-ROOSEVELT New York City metro station,40.746739,-73.8909986,1,11372,OK,"establishment,point_of_interest,subway_station,transit_station"
374,GEOMETRIC_CENTER,"174-175 St Station, Bronx, NY 10453, USA",ChIJ94pi_Wr0wokRsRY5_v1_3n0,174-175 STS New York City metro station,40.846524,-73.9097269,1,10453,OK,"establishment,point_of_interest,subway_station,transit_station"
375,GEOMETRIC_CENTER,"57th Street-Seventh Ave., New York, NY 10106, USA",ChIJb-OFh_dYwokRAJW452KSwV0,57 ST New York City metro station,40.765564,-73.9803309,2,10106,OK,"establishment,point_of_interest,subway_station,transit_station"
376,GEOMETRIC_CENTER,"39 Avenue Station, Queens, NY 11101, USA",ChIJpwGhgCtfwokR-jJi3_Dt4uM,39 AV New York City metro station,40.7526574,-73.9328598,1,11101,OK,"establishment,point_of_interest,subway_station,transit_station"
377,GEOMETRIC_CENTER,"163 Street Subway Station, New York, NY 10032, USA",ChIJ-xLFEYP2wokRkem_VrgChLQ,163 ST-AMSTERDM New York City metro station,40.836018,-73.9398665,1,10032,OK,"establishment,point_of_interest,subway_station,transit_station"
